{"type": "FeatureCollection", "features": [{"type": "Feature", "geometry": {"type": "Point", "coordinates": [116.4361324, 39.8842843]}, "properties": {"name": "东城区板厂小学（职大校区）", "category": "高等院校", "district": "东城区", "osmId": "way/966934838"}}, {"type": "Feature", "geometry": {"type": "Point", "coordinates": [116.4096525, 39.9099779]}, "properties": {"name": "中国医学科学院 北京协和医学院", "category": "高等院校", "district": "东城区", "osmId": "way/1302974650"}}, {"type": "Feature", "geometry": {"type": "Point", "coordinates": [116.4101511, 39.9335133]}, "properties": {"name": "中国社会科学院", "category": "高等院校", "district": "东城区", "osmId": "way/389345159"}}, {"type": "Feature", "geometry": {"type": "Point", "coordinates": [116.4259574, 39.908589]}, "properties": {"name": "中国社会科学院", "category": "高等院校", "district": "东城区", "osmId": "way/795887963"}}, {"type": "Feature", "geometry": {"type": "Point", "coordinates": [116.1048728, 39.8085988]}, "properties": {"name": "中央民族大学丰台校区", "category": "高等院校", "district": "丰台区", "osmId": "way/546731352"}}, {"type": "Feature", "geometry": {"type": "Point", "coordinates": [116.3123308, 39.8314995]}, "properties": {"name": "国家法官学院", "category": "高等院校", "district": "丰台区", "osmId": "way/632270852"}}, {"type": "Feature", "geometry": {"type": "Point", "coordinates": [116.3459289, 39.8632816]}, "properties": {"name": "首都医科大学", "category": "高等院校", "district": "丰台区", "osmId": "way/916682168"}}, {"type": "Feature", "geometry": {"type": "Point", "coordinates": [116.3467124, 39.8588989]}, "properties": {"name": "首都医科大学（南校区）", "category": "高等院校", "district": "丰台区", "osmId": "way/916682169"}}, {"type": "Feature", "geometry": {"type": "Point", "coordinates": [116.3157813, 39.8401001]}, "properties": {"name": "首都经济贸易大学 - 赛欧公寓", "category": "高等院校", "district": "丰台区", "osmId": "way/672280210"}}, {"type": "Feature", "geometry": {"type": "Point", "coordinates": [116.3321694, 39.7183005]}, "properties": {"name": "中华女子学院（南校区）", "category": "高等院校", "district": "大兴区", "osmId": "way/509128829"}}, {"type": "Feature", "geometry": {"type": "Point", "coordinates": [116.3608339, 39.764862]}, "properties": {"name": "中国人民公安大学（团河校区）", "category": "高等院校", "district": "大兴区", "osmId": "way/680851836"}}, {"type": "Feature", "geometry": {"type": "Point", "coordinates": [116.314379, 39.7462185]}, "properties": {"name": "中国天主教神哲学院", "category": "高等院校", "district": "大兴区", "osmId": "way/565103724"}}, {"type": "Feature", "geometry": {"type": "Point", "coordinates": [116.3339955, 39.718368]}, "properties": {"name": "中央文化和旅游管理干部学院", "category": "高等院校", "district": "大兴区", "osmId": "way/509128831"}}, {"type": "Feature", "geometry": {"type": "Point", "coordinates": [116.323216, 39.7432608]}, "properties": {"name": "北京印刷学院", "category": "高等院校", "district": "大兴区", "osmId": "way/50636364"}}, {"type": "Feature", "geometry": {"type": "Point", "coordinates": [116.3136729, 39.7445063]}, "properties": {"name": "北京印刷学院职业技术学院", "category": "高等院校", "district": "大兴区", "osmId": "way/569599811"}}, {"type": "Feature", "geometry": {"type": "Point", "coordinates": [116.3071297, 39.7575846]}, "properties": {"name": "北京印刷学院（康庄校区）", "category": "高等院校", "district": "大兴区", "osmId": "way/564869821"}}, {"type": "Feature", "geometry": {"type": "Point", "coordinates": [116.3509562, 39.7571085]}, "properties": {"name": "北京大学软件与微电子学院", "category": "高等院校", "district": "大兴区", "osmId": "way/680851835"}}, {"type": "Feature", "geometry": {"type": "Point", "coordinates": [116.3126024, 39.7462245]}, "properties": {"name": "北京市科学技术进修学院", "category": "高等院校", "district": "大兴区", "osmId": "way/565103725"}}, {"type": "Feature", "geometry": {"type": "Point", "coordinates": [116.2801776, 39.7471472]}, "properties": {"name": "北京建筑大学大兴校区", "category": "高等院校", "district": "大兴区", "osmId": "way/546474045"}}, {"type": "Feature", "geometry": {"type": "Point", "coordinates": [116.3196679, 39.7468439]}, "properties": {"name": "北京石油化工学院", "category": "高等院校", "district": "大兴区", "osmId": "way/405123800"}}, {"type": "Feature", "geometry": {"type": "Point", "coordinates": [116.3071356, 39.7563415]}, "properties": {"name": "北京石油化工学院（康庄校区）", "category": "高等院校", "district": "大兴区", "osmId": "way/564765088"}}, {"type": "Feature", "geometry": {"type": "Point", "coordinates": [116.3186801, 39.7437824]}, "properties": {"name": "国家教育行政学院", "category": "高等院校", "district": "大兴区", "osmId": "way/405075444"}}, {"type": "Feature", "geometry": {"type": "Point", "coordinates": [116.3335029, 39.7199557]}, "properties": {"name": "国家林业局管理干部学院", "category": "高等院校", "district": "大兴区", "osmId": "way/509128828"}}, {"type": "Feature", "geometry": {"type": "Point", "coordinates": [116.6642371, 40.3534141]}, "properties": {"name": "解放军航天工程大学", "category": "高等院校", "district": "怀柔区", "osmId": "way/547612611"}}, {"type": "Feature", "geometry": {"type": "Point", "coordinates": [116.1735664, 39.738491]}, "properties": {"name": "中国社会科学院大学", "category": "高等院校", "district": "房山区", "osmId": "way/570679043"}}, {"type": "Feature", "geometry": {"type": "Point", "coordinates": [116.1579776, 39.7204943]}, "properties": {"name": "北京经贸职业学院", "category": "高等院校", "district": "房山区", "osmId": "way/678530448"}}, {"type": "Feature", "geometry": {"type": "Point", "coordinates": [116.062711, 39.6871711]}, "properties": {"name": "北京网络职业学院", "category": "高等院校", "district": "房山区", "osmId": "way/948453411"}}, {"type": "Feature", "geometry": {"type": "Point", "coordinates": [116.1724641, 39.7115256]}, "properties": {"name": "首都师范大学（良乡校区）", "category": "高等院校", "district": "房山区", "osmId": "way/395005311"}}, {"type": "Feature", "geometry": {"type": "Point", "coordinates": [116.2413962, 40.2218067]}, "properties": {"name": "中国政法大学（昌平校区）", "category": "高等院校", "district": "昌平区", "osmId": "way/412477726"}}, {"type": "Feature", "geometry": {"type": "Point", "coordinates": [116.2556215, 40.1515254]}, "properties": {"name": "中国矿业大学（北京）沙河校区", "category": "高等院校", "district": "昌平区", "osmId": "way/683349458"}}, {"type": "Feature", "geometry": {"type": "Point", "coordinates": [116.3696226, 40.1028037]}, "properties": {"name": "中央戏剧学院(昌平校区)", "category": "高等院校", "district": "昌平区", "osmId": "way/724847032"}}, {"type": "Feature", "geometry": {"type": "Point", "coordinates": [116.2694791, 40.1699429]}, "properties": {"name": "中央财经大学（沙河校区）", "category": "高等院校", "district": "昌平区", "osmId": "way/157863250"}}, {"type": "Feature", "geometry": {"type": "Point", "coordinates": [116.2773945, 40.1704294]}, "properties": {"name": "中央财经大学（沙河校区）", "category": "高等院校", "district": "昌平区", "osmId": "way/157863251"}}, {"type": "Feature", "geometry": {"type": "Point", "coordinates": [116.154782, 40.250781]}, "properties": {"name": "中直机关党校", "category": "高等院校", "district": "昌平区", "osmId": "way/629215837"}}, {"type": "Feature", "geometry": {"type": "Point", "coordinates": [116.2319094, 40.1398731]}, "properties": {"name": "北京信息科技大学昌平校区", "category": "高等院校", "district": "昌平区", "osmId": "way/962102811"}}, {"type": "Feature", "geometry": {"type": "Point", "coordinates": [116.1789718, 40.224168]}, "properties": {"name": "北京劳动保障职业学院（北校区）", "category": "高等院校", "district": "昌平区", "osmId": "way/641311612"}}, {"type": "Feature", "geometry": {"type": "Point", "coordinates": [116.1438335, 40.2527159]}, "properties": {"name": "北京化工大学(昌平校区)", "category": "高等院校", "district": "昌平区", "osmId": "way/629215836"}}, {"type": "Feature", "geometry": {"type": "Point", "coordinates": [116.1569223, 40.1749746]}, "properties": {"name": "北京大学（新燕园校区）", "category": "高等院校", "district": "昌平区", "osmId": "way/217111712"}}, {"type": "Feature", "geometry": {"type": "Point", "coordinates": [116.1839545, 40.246151]}, "properties": {"name": "北京大学（昌平校区）", "category": "高等院校", "district": "昌平区", "osmId": "way/629215820"}}, {"type": "Feature", "geometry": {"type": "Point", "coordinates": [116.2355469, 40.2160892]}, "properties": {"name": "北京市昌平卫生学校", "category": "高等院校", "district": "昌平区", "osmId": "way/965643610"}}, {"type": "Feature", "geometry": {"type": "Point", "coordinates": [116.2577033, 40.1482611]}, "properties": {"name": "北京师范大学（沙河西区）", "category": "高等院校", "district": "昌平区", "osmId": "way/683360754"}}, {"type": "Feature", "geometry": {"type": "Point", "coordinates": [116.2391581, 40.1931075]}, "properties": {"name": "北京汇佳职业学院", "category": "高等院校", "district": "昌平区", "osmId": "way/856685159"}}, {"type": "Feature", "geometry": {"type": "Point", "coordinates": [116.3662148, 40.1106468]}, "properties": {"name": "北京电影学院继续教育学院", "category": "高等院校", "district": "昌平区", "osmId": "way/724847033"}}, {"type": "Feature", "geometry": {"type": "Point", "coordinates": [116.2841511, 40.1427539]}, "properties": {"name": "北京科技经营管理学院（沙河新校区）", "category": "高等院校", "district": "昌平区", "osmId": "way/742154887"}}, {"type": "Feature", "geometry": {"type": "Point", "coordinates": [116.2642212, 40.1523351]}, "properties": {"name": "北京航空航天大学（沙河校区）", "category": "高等院校", "district": "昌平区", "osmId": "way/353022942"}}, {"type": "Feature", "geometry": {"type": "Point", "coordinates": [116.368822, 40.107479]}, "properties": {"name": "北京邮电大学（宏福校区）", "category": "高等院校", "district": "昌平区", "osmId": "way/399354071"}}, {"type": "Feature", "geometry": {"type": "Point", "coordinates": [116.2833326, 40.1560779]}, "properties": {"name": "北京邮电大学（沙河校区）", "category": "高等院校", "district": "昌平区", "osmId": "way/685054417"}}, {"type": "Feature", "geometry": {"type": "Point", "coordinates": [116.2746903, 40.152617]}, "properties": {"name": "外交学院（沙河校区）", "category": "高等院校", "district": "昌平区", "osmId": "way/387284608"}}, {"type": "Feature", "geometry": {"type": "Point", "coordinates": [116.1515785, 40.2593594]}, "properties": {"name": "清华大学核能与新能源技术研究院", "category": "高等院校", "district": "昌平区", "osmId": "way/838430585"}}, {"type": "Feature", "geometry": {"type": "Point", "coordinates": [116.1551055, 40.2511396]}, "properties": {"name": "清华大学科研基地", "category": "高等院校", "district": "昌平区", "osmId": "way/673281551"}}, {"type": "Feature", "geometry": {"type": "Point", "coordinates": [116.2503204, 40.2270282]}, "properties": {"name": "解放军航天工程大学士官学校", "category": "高等院校", "district": "昌平区", "osmId": "way/208805203"}}, {"type": "Feature", "geometry": {"type": "Point", "coordinates": [116.4722828, 39.9831567]}, "properties": {"name": "中国民航管理干部学院", "category": "高等院校", "district": "朝阳区", "osmId": "way/357824304"}}, {"type": "Feature", "geometry": {"type": "Point", "coordinates": [116.4719106, 39.9801603]}, "properties": {"name": "中国社会科学院大学（望京校区）", "category": "高等院校", "district": "朝阳区", "osmId": "way/264413431"}}, {"type": "Feature", "geometry": {"type": "Point", "coordinates": [116.3732505, 40.0018318]}, "properties": {"name": "中国科学院大学（奥运村校区）", "category": "高等院校", "district": "朝阳区", "osmId": "way/467591980"}}, {"type": "Feature", "geometry": {"type": "Point", "coordinates": [116.4573445, 39.982361]}, "properties": {"name": "中央美术学院", "category": "高等院校", "district": "朝阳区", "osmId": "way/353135368"}}, {"type": "Feature", "geometry": {"type": "Point", "coordinates": [116.4595449, 39.9802631]}, "properties": {"name": "中央美术学院设计学院", "category": "高等院校", "district": "朝阳区", "osmId": "way/500995350"}}, {"type": "Feature", "geometry": {"type": "Point", "coordinates": [116.4159061, 39.9775966]}, "properties": {"name": "全国市长研修学院", "category": "高等院校", "district": "朝阳区", "osmId": "way/412472218"}}, {"type": "Feature", "geometry": {"type": "Point", "coordinates": [116.4655484, 39.9794635]}, "properties": {"name": "北京中医药大学（东校区）", "category": "高等院校", "district": "朝阳区", "osmId": "way/264413430"}}, {"type": "Feature", "geometry": {"type": "Point", "coordinates": [116.4222921, 39.9698622]}, "properties": {"name": "北京中医药大学（西校区）", "category": "高等院校", "district": "朝阳区", "osmId": "way/260795158"}}, {"type": "Feature", "geometry": {"type": "Point", "coordinates": [116.4767938, 39.9715845]}, "properties": {"name": "北京信息职业技术学院", "category": "高等院校", "district": "朝阳区", "osmId": "way/439497832"}}, {"type": "Feature", "geometry": {"type": "Point", "coordinates": [116.4150125, 39.9702338]}, "properties": {"name": "北京化工大学", "category": "高等院校", "district": "朝阳区", "osmId": "way/260795156"}}, {"type": "Feature", "geometry": {"type": "Point", "coordinates": [116.4772154, 39.8741692]}, "properties": {"name": "北京工业大学", "category": "高等院校", "district": "朝阳区", "osmId": "way/33617299"}}, {"type": "Feature", "geometry": {"type": "Point", "coordinates": [116.4700893, 39.8765522]}, "properties": {"name": "北京工业大学西区", "category": "高等院校", "district": "朝阳区", "osmId": "way/839812062"}}, {"type": "Feature", "geometry": {"type": "Point", "coordinates": [116.474251, 39.8842398]}, "properties": {"name": "北京工业大学（中蓝校区）", "category": "高等院校", "district": "朝阳区", "osmId": "way/839812064"}}, {"type": "Feature", "geometry": {"type": "Point", "coordinates": [116.5577083, 39.911683]}, "properties": {"name": "北京第二外国语学院", "category": "高等院校", "district": "朝阳区", "osmId": "way/297678790"}}, {"type": "Feature", "geometry": {"type": "Point", "coordinates": [116.4683727, 39.9825721]}, "properties": {"name": "北京经济管理职业学院", "category": "高等院校", "district": "朝阳区", "osmId": "way/360804981"}}, {"type": "Feature", "geometry": {"type": "Point", "coordinates": [116.4214499, 39.9789349]}, "properties": {"name": "对外经济贸易大学", "category": "高等院校", "district": "朝阳区", "osmId": "way/412468627"}}, {"type": "Feature", "geometry": {"type": "Point", "coordinates": [116.3460317, 39.9845146]}, "properties": {"name": "世宁大厦", "category": "高等院校", "district": "海淀区", "osmId": "node/395214553"}}, {"type": "Feature", "geometry": {"type": "Point", "coordinates": [116.2723973, 40.0055458]}, "properties": {"name": "中共中央党校(国家行政学院)", "category": "高等院校", "district": "海淀区", "osmId": "way/50630366"}}, {"type": "Feature", "geometry": {"type": "Point", "coordinates": [116.3393373, 39.9859206]}, "properties": {"name": "中关村学院", "category": "高等院校", "district": "海淀区", "osmId": "way/868296014"}}, {"type": "Feature", "geometry": {"type": "Point", "coordinates": [116.3315353, 39.8992868]}, "properties": {"name": "中国人民公安大学", "category": "高等院校", "district": "海淀区", "osmId": "way/940943813"}}, {"type": "Feature", "geometry": {"type": "Point", "coordinates": [116.3073883, 39.9692704]}, "properties": {"name": "中国人民大学", "category": "高等院校", "district": "海淀区", "osmId": "way/30725330"}}, {"type": "Feature", "geometry": {"type": "Point", "coordinates": [116.3047648, 39.972999]}, "properties": {"name": "中国人民大学北校区", "category": "高等院校", "district": "海淀区", "osmId": "way/515209524"}}, {"type": "Feature", "geometry": {"type": "Point", "coordinates": [116.3577135, 40.0006343]}, "properties": {"name": "中国人民大学继续教育学院", "category": "高等院校", "district": "海淀区", "osmId": "node/1732799822"}}, {"type": "Feature", "geometry": {"type": "Point", "coordinates": [116.0953336, 40.1010502]}, "properties": {"name": "中国佛学院(新校区)", "category": "高等院校", "district": "海淀区", "osmId": "way/1049586854"}}, {"type": "Feature", "geometry": {"type": "Point", "coordinates": [116.3501865, 40.0087941]}, "properties": {"name": "中国农业大学", "category": "高等院校", "district": "海淀区", "osmId": "way/412323508"}}, {"type": "Feature", "geometry": {"type": "Point", "coordinates": [116.3518912, 40.0032746]}, "properties": {"name": "中国农业大学东校区", "category": "高等院校", "district": "海淀区", "osmId": "way/55816439"}}, {"type": "Feature", "geometry": {"type": "Point", "coordinates": [116.2767932, 40.0252887]}, "properties": {"name": "中国农业大学西校区", "category": "高等院校", "district": "海淀区", "osmId": "way/50625373"}}, {"type": "Feature", "geometry": {"type": "Point", "coordinates": [116.3104118, 39.9285445]}, "properties": {"name": "中国劳动关系学院", "category": "高等院校", "district": "海淀区", "osmId": "way/412290253"}}, {"type": "Feature", "geometry": {"type": "Point", "coordinates": [116.340587, 39.9886771]}, "properties": {"name": "中国地质大学（北京）", "category": "高等院校", "district": "海淀区", "osmId": "way/245164271"}}, {"type": "Feature", "geometry": {"type": "Point", "coordinates": [116.33021, 39.9261277]}, "properties": {"name": "中国地质科学院", "category": "高等院校", "district": "海淀区", "osmId": "way/412294459"}}, {"type": "Feature", "geometry": {"type": "Point", "coordinates": [116.3449877, 39.9640009]}, "properties": {"name": "中国政法大学（学院路校区）", "category": "高等院校", "district": "海淀区", "osmId": "way/378420724"}}, {"type": "Feature", "geometry": {"type": "Point", "coordinates": [116.3422257, 39.9971249]}, "properties": {"name": "中国矿业大学（北京）", "category": "高等院校", "district": "海淀区", "osmId": "way/1003833559"}}, {"type": "Feature", "geometry": {"type": "Point", "coordinates": [116.328872, 39.9813631]}, "properties": {"name": "中国科学院大学中关村校区", "category": "高等院校", "district": "海淀区", "osmId": "node/3196516822"}}, {"type": "Feature", "geometry": {"type": "Point", "coordinates": [116.323852, 39.9804794]}, "properties": {"name": "中国科学院大学中关村校区", "category": "高等院校", "district": "海淀区", "osmId": "way/302985254"}}, {"type": "Feature", "geometry": {"type": "Point", "coordinates": [116.3300232, 39.9828705]}, "properties": {"name": "中国科学院大学（中关村校区）", "category": "高等院校", "district": "海淀区", "osmId": "way/389714442"}}, {"type": "Feature", "geometry": {"type": "Point", "coordinates": [116.3013429, 39.9496347]}, "properties": {"name": "中国青年政治学院", "category": "高等院校", "district": "海淀区", "osmId": "way/412296635"}}, {"type": "Feature", "geometry": {"type": "Point", "coordinates": [116.3145046, 39.9496422]}, "properties": {"name": "中央民族大学", "category": "高等院校", "district": "海淀区", "osmId": "way/365025448"}}, {"type": "Feature", "geometry": {"type": "Point", "coordinates": [116.3362178, 39.9581712]}, "properties": {"name": "中央财经大学", "category": "高等院校", "district": "海淀区", "osmId": "way/248393687"}}, {"type": "Feature", "geometry": {"type": "Point", "coordinates": [116.3172122, 40.030422]}, "properties": {"name": "中央财经大学清河校区", "category": "高等院校", "district": "海淀区", "osmId": "way/475229886"}}, {"type": "Feature", "geometry": {"type": "Point", "coordinates": [116.3502473, 40.0052251]}, "properties": {"name": "信息与电气工程学院", "category": "高等院校", "district": "海淀区", "osmId": "way/169065601"}}, {"type": "Feature", "geometry": {"type": "Point", "coordinates": [116.2979961, 39.9407892]}, "properties": {"name": "北京化工大学(西校区)", "category": "高等院校", "district": "海淀区", "osmId": "way/412296579"}}, {"type": "Feature", "geometry": {"type": "Point", "coordinates": [116.3409998, 39.9863775]}, "properties": {"name": "北京城市学院", "category": "高等院校", "district": "海淀区", "osmId": "way/868296015"}}, {"type": "Feature", "geometry": {"type": "Point", "coordinates": [116.3390971, 40.0195347]}, "properties": {"name": "北京培黎职业学院", "category": "高等院校", "district": "海淀区", "osmId": "way/298041155"}}, {"type": "Feature", "geometry": {"type": "Point", "coordinates": [116.3039902, 39.9917097]}, "properties": {"name": "北京大学", "category": "高等院校", "district": "海淀区", "osmId": "way/1330709889"}}, {"type": "Feature", "geometry": {"type": "Point", "coordinates": [116.3505061, 39.9821615]}, "properties": {"name": "北京大学BSL-3实验室", "category": "高等院校", "district": "海淀区", "osmId": "node/5261588232"}}, {"type": "Feature", "geometry": {"type": "Point", "coordinates": [116.3120727, 39.99309]}, "properties": {"name": "北京大学工学院", "category": "高等院校", "district": "海淀区", "osmId": "way/866277614"}}, {"type": "Feature", "geometry": {"type": "Point", "coordinates": [116.3128621, 39.9241835]}, "properties": {"name": "北京工商大学（阜成路校区）东区", "category": "高等院校", "district": "海淀区", "osmId": "way/1052396053"}}, {"type": "Feature", "geometry": {"type": "Point", "coordinates": [116.3082486, 39.924667]}, "properties": {"name": "北京工商大学（阜成路校区）西区", "category": "高等院校", "district": "海淀区", "osmId": "way/412290840"}}, {"type": "Feature", "geometry": {"type": "Point", "coordinates": [116.3383913, 39.98586]}, "properties": {"name": "北京市海淀区职业学校", "category": "高等院校", "district": "海淀区", "osmId": "node/1367428477"}}, {"type": "Feature", "geometry": {"type": "Point", "coordinates": [116.2941795, 39.9244303]}, "properties": {"name": "北京市经济管理学校", "category": "高等院校", "district": "海淀区", "osmId": "way/1053801338"}}, {"type": "Feature", "geometry": {"type": "Point", "coordinates": [116.3597548, 39.9603271]}, "properties": {"name": "北京师范大学", "category": "高等院校", "district": "海淀区", "osmId": "way/30784020"}}, {"type": "Feature", "geometry": {"type": "Point", "coordinates": [116.3383562, 40.0029223]}, "properties": {"name": "北京林业大学", "category": "高等院校", "district": "海淀区", "osmId": "way/412323504"}}, {"type": "Feature", "geometry": {"type": "Point", "coordinates": [116.2303466, 40.0382727]}, "properties": {"name": "北京理工大学西山实验区", "category": "高等院校", "district": "海淀区", "osmId": "way/661458542"}}, {"type": "Feature", "geometry": {"type": "Point", "coordinates": [116.3495305, 39.9702007]}, "properties": {"name": "北京电影学院", "category": "高等院校", "district": "海淀区", "osmId": "way/388355720"}}, {"type": "Feature", "geometry": {"type": "Point", "coordinates": [116.3531931, 39.9890463]}, "properties": {"name": "北京科技大学", "category": "高等院校", "district": "海淀区", "osmId": "way/277989175"}}, {"type": "Feature", "geometry": {"type": "Point", "coordinates": [116.3129854, 39.9459174]}, "properties": {"name": "北京舞蹈学院", "category": "高等院校", "district": "海淀区", "osmId": "way/548810366"}}, {"type": "Feature", "geometry": {"type": "Point", "coordinates": [116.351917, 39.9602522]}, "properties": {"name": "北京邮电大学", "category": "高等院校", "district": "海淀区", "osmId": "way/279303636"}}, {"type": "Feature", "geometry": {"type": "Point", "coordinates": [116.2663469, 39.907212]}, "properties": {"name": "国家开放大学", "category": "高等院校", "district": "海淀区", "osmId": "way/276909363"}}, {"type": "Feature", "geometry": {"type": "Point", "coordinates": [116.2943, 39.9565109]}, "properties": {"name": "国家行政学院", "category": "高等院校", "district": "海淀区", "osmId": "way/933940848"}}, {"type": "Feature", "geometry": {"type": "Point", "coordinates": [116.3189754, 39.9538788]}, "properties": {"name": "国防大学军事文化学院", "category": "高等院校", "district": "海淀区", "osmId": "way/917379046"}}, {"type": "Feature", "geometry": {"type": "Point", "coordinates": [116.2798963, 40.0027472]}, "properties": {"name": "国际关系学院", "category": "高等院校", "district": "海淀区", "osmId": "way/108232544"}}, {"type": "Feature", "geometry": {"type": "Point", "coordinates": [116.3450304, 39.9913956]}, "properties": {"name": "土地科学技术学院", "category": "高等院校", "district": "海淀区", "osmId": "node/8948382442"}}, {"type": "Feature", "geometry": {"type": "Point", "coordinates": [116.3610494, 39.9578886]}, "properties": {"name": "天文学系", "category": "高等院校", "district": "海淀区", "osmId": "node/5136949081"}}, {"type": "Feature", "geometry": {"type": "Point", "coordinates": [116.3513426, 40.0045496]}, "properties": {"name": "工学院", "category": "高等院校", "district": "海淀区", "osmId": "way/279281877"}}, {"type": "Feature", "geometry": {"type": "Point", "coordinates": [116.3340431, 40.0091858]}, "properties": {"name": "明志斋", "category": "高等院校", "district": "海淀区", "osmId": "node/12610171692"}}, {"type": "Feature", "geometry": {"type": "Point", "coordinates": [116.3055395, 39.9957446]}, "properties": {"name": "李兆基人文学苑", "category": "高等院校", "district": "海淀区", "osmId": "way/1101013040"}}, {"type": "Feature", "geometry": {"type": "Point", "coordinates": [116.3384589, 39.9859036]}, "properties": {"name": "海淀区职业技校东校区", "category": "高等院校", "district": "海淀区", "osmId": "way/868296013"}}, {"type": "Feature", "geometry": {"type": "Point", "coordinates": [116.3100323, 40.014157]}, "properties": {"name": "海淀高等职业教育学院", "category": "高等院校", "district": "海淀区", "osmId": "way/1005615195"}}, {"type": "Feature", "geometry": {"type": "Point", "coordinates": [116.3210052, 39.99839]}, "properties": {"name": "清华园老龄大学", "category": "高等院校", "district": "海淀区", "osmId": "node/10198894138"}}, {"type": "Feature", "geometry": {"type": "Point", "coordinates": [116.3295211, 39.9921937]}, "properties": {"name": "清华大学五道口金融学院", "category": "高等院校", "district": "海淀区", "osmId": "way/638127847"}}, {"type": "Feature", "geometry": {"type": "Point", "coordinates": [116.310297, 40.0020052]}, "properties": {"name": "清华大学求真书院", "category": "高等院校", "district": "海淀区", "osmId": "way/1551980200"}}, {"type": "Feature", "geometry": {"type": "Point", "coordinates": [116.3612714, 39.9578813]}, "properties": {"name": "物理学系", "category": "高等院校", "district": "海淀区", "osmId": "node/5136949082"}}, {"type": "Feature", "geometry": {"type": "Point", "coordinates": [116.3516368, 39.984057]}, "properties": {"name": "第三教室", "category": "高等院校", "district": "海淀区", "osmId": "node/5257082243"}}, {"type": "Feature", "geometry": {"type": "Point", "coordinates": [116.3504472, 39.9835495]}, "properties": {"name": "第五教室", "category": "高等院校", "district": "海淀区", "osmId": "node/5257147009"}}, {"type": "Feature", "geometry": {"type": "Point", "coordinates": [116.3517633, 39.9818242]}, "properties": {"name": "第十二教室", "category": "高等院校", "district": "海淀区", "osmId": "node/5257147008"}}, {"type": "Feature", "geometry": {"type": "Point", "coordinates": [116.3504106, 39.9839982]}, "properties": {"name": "第四教室", "category": "高等院校", "district": "海淀区", "osmId": "node/5257082242"}}, {"type": "Feature", "geometry": {"type": "Point", "coordinates": [116.3430913, 39.9687626]}, "properties": {"name": "首都体育学院", "category": "高等院校", "district": "海淀区", "osmId": "node/1743112504"}}, {"type": "Feature", "geometry": {"type": "Point", "coordinates": [116.3180912, 39.9244897]}, "properties": {"name": "首都师范大学（东一区）", "category": "高等院校", "district": "海淀区", "osmId": "way/412291127"}}, {"type": "Feature", "geometry": {"type": "Point", "coordinates": [116.2395274, 39.9102684]}, "properties": {"name": "中国科学技术大学北京中科研究院", "category": "高等院校", "district": "石景山区", "osmId": "way/1163241183"}}, {"type": "Feature", "geometry": {"type": "Point", "coordinates": [116.2440641, 39.9077477]}, "properties": {"name": "中国科学院大学（玉泉路校区）", "category": "高等院校", "district": "石景山区", "osmId": "way/287991319"}}, {"type": "Feature", "geometry": {"type": "Point", "coordinates": [116.1649534, 39.93957]}, "properties": {"name": "中央财经大学西山校区", "category": "高等院校", "district": "石景山区", "osmId": "way/630524398"}}, {"type": "Feature", "geometry": {"type": "Point", "coordinates": [116.2021284, 39.9267243]}, "properties": {"name": "北方工业大学", "category": "高等院校", "district": "石景山区", "osmId": "way/58646576"}}, {"type": "Feature", "geometry": {"type": "Point", "coordinates": [116.1953015, 39.9440407]}, "properties": {"name": "国家检察官学院（香山校区）", "category": "高等院校", "district": "石景山区", "osmId": "way/985504735"}}, {"type": "Feature", "geometry": {"type": "Point", "coordinates": [116.1951676, 39.9250007]}, "properties": {"name": "首钢工学院", "category": "高等院校", "district": "石景山区", "osmId": "way/585925839"}}, {"type": "Feature", "geometry": {"type": "Point", "coordinates": [116.3354846, 39.9340644]}, "properties": {"name": "北京建筑大学（西城校区）", "category": "高等院校", "district": "西城区", "osmId": "way/412295595"}}, {"type": "Feature", "geometry": {"type": "Point", "coordinates": [116.3395071, 39.9252215]}, "properties": {"name": "外交学院", "category": "高等院校", "district": "西城区", "osmId": "way/412295206"}}, {"type": "Feature", "geometry": {"type": "Point", "coordinates": [116.3345206, 39.9261478]}, "properties": {"name": "机械工业信息研究院", "category": "高等院校", "district": "西城区", "osmId": "way/952604401"}}, {"type": "Feature", "geometry": {"type": "Point", "coordinates": [116.3841683, 39.9633675]}, "properties": {"name": "西黃寺（中国藏语系高级佛学院）", "category": "高等院校", "district": "西城区", "osmId": "way/232729787"}}, {"type": "Feature", "geometry": {"type": "Point", "coordinates": [116.6563757, 39.9006372]}, "properties": {"name": "北京交通运输职业学院", "category": "高等院校", "district": "通州区", "osmId": "way/691433360"}}, {"type": "Feature", "geometry": {"type": "Point", "coordinates": [116.6628233, 39.9284252]}, "properties": {"name": "北京工业大学（通州校区）", "category": "高等院校", "district": "通州区", "osmId": "way/541997855"}}, {"type": "Feature", "geometry": {"type": "Point", "coordinates": [116.6837346, 39.949923]}, "properties": {"name": "清华大学通州金融发展与人才培养基地（在建）", "category": "高等院校", "district": "通州区", "osmId": "way/1053213996"}}, {"type": "Feature", "geometry": {"type": "Point", "coordinates": [116.646401, 40.2147592]}, "properties": {"name": "北京工业大学耿丹学院", "category": "高等院校", "district": "顺义区", "osmId": "way/618803078"}}]}