{"type": "FeatureCollection", "features": [{"type": "Feature", "geometry": {"type": "Point", "coordinates": [116.417, 39.914]}, "properties": {"name": "北京协和医院", "district": "东城区", "amenity": "hospital"}}, {"type": "Feature", "geometry": {"type": "Point", "coordinates": [116.418, 39.899]}, "properties": {"name": "北京同仁医院", "district": "东城区", "amenity": "hospital"}}, {"type": "Feature", "geometry": {"type": "Point", "coordinates": [116.421, 39.914]}, "properties": {"name": "北京医院", "district": "东城区", "amenity": "hospital"}}, {"type": "Feature", "geometry": {"type": "Point", "coordinates": [116.43, 39.942]}, "properties": {"name": "东直门医院", "district": "东城区", "amenity": "hospital"}}, {"type": "Feature", "geometry": {"type": "Point", "coordinates": [116.383, 39.929]}, "properties": {"name": "北京大学第一医院", "district": "西城区", "amenity": "hospital"}}, {"type": "Feature", "geometry": {"type": "Point", "coordinates": [116.356, 39.943]}, "properties": {"name": "北京大学人民医院", "district": "西城区", "amenity": "hospital"}}, {"type": "Feature", "geometry": {"type": "Point", "coordinates": [116.392, 39.887]}, "properties": {"name": "北京友谊医院", "district": "西城区", "amenity": "hospital"}}, {"type": "Feature", "geometry": {"type": "Point", "coordinates": [116.373, 39.945]}, "properties": {"name": "北京积水潭医院", "district": "西城区", "amenity": "hospital"}}, {"type": "Feature", "geometry": {"type": "Point", "coordinates": [116.366, 39.894]}, "properties": {"name": "北京宣武医院", "district": "西城区", "amenity": "hospital"}}, {"type": "Feature", "geometry": {"type": "Point", "coordinates": [116.355, 39.889]}, "properties": {"name": "广安门医院", "district": "西城区", "amenity": "hospital"}}, {"type": "Feature", "geometry": {"type": "Point", "coordinates": [116.366, 39.924]}, "properties": {"name": "阜外医院", "district": "西城区", "amenity": "hospital"}}, {"type": "Feature", "geometry": {"type": "Point", "coordinates": [116.357, 39.914]}, "properties": {"name": "北京儿童医院", "district": "西城区", "amenity": "hospital"}}, {"type": "Feature", "geometry": {"type": "Point", "coordinates": [116.454, 39.927]}, "properties": {"name": "北京朝阳医院", "district": "朝阳区", "amenity": "hospital"}}, {"type": "Feature", "geometry": {"type": "Point", "coordinates": [116.419, 39.972]}, "properties": {"name": "中日友好医院", "district": "朝阳区", "amenity": "hospital"}}, {"type": "Feature", "geometry": {"type": "Point", "coordinates": [116.402, 39.973]}, "properties": {"name": "北京安贞医院", "district": "朝阳区", "amenity": "hospital"}}, {"type": "Feature", "geometry": {"type": "Point", "coordinates": [116.437, 39.914]}, "properties": {"name": "首都儿科研究所", "district": "朝阳区", "amenity": "hospital"}}, {"type": "Feature", "geometry": {"type": "Point", "coordinates": [116.467, 39.994]}, "properties": {"name": "中国中医科学院望京医院", "district": "朝阳区", "amenity": "hospital"}}, {"type": "Feature", "geometry": {"type": "Point", "coordinates": [116.521, 39.921]}, "properties": {"name": "民航总医院", "district": "朝阳区", "amenity": "hospital"}}, {"type": "Feature", "geometry": {"type": "Point", "coordinates": [116.279, 39.907]}, "properties": {"name": "中国人民解放军总医院", "district": "海淀区", "amenity": "hospital"}}, {"type": "Feature", "geometry": {"type": "Point", "coordinates": [116.353, 39.981]}, "properties": {"name": "北京大学第三医院", "district": "海淀区", "amenity": "hospital"}}, {"type": "Feature", "geometry": {"type": "Point", "coordinates": [116.271, 39.908]}, "properties": {"name": "航天中心医院", "district": "海淀区", "amenity": "hospital"}}, {"type": "Feature", "geometry": {"type": "Point", "coordinates": [116.321, 39.899]}, "properties": {"name": "北京世纪坛医院", "district": "海淀区", "amenity": "hospital"}}, {"type": "Feature", "geometry": {"type": "Point", "coordinates": [116.317, 39.909]}, "properties": {"name": "海军总医院", "district": "海淀区", "amenity": "hospital"}}, {"type": "Feature", "geometry": {"type": "Point", "coordinates": [116.305, 39.828]}, "properties": {"name": "北京天坛医院", "district": "丰台区", "amenity": "hospital"}}, {"type": "Feature", "geometry": {"type": "Point", "coordinates": [116.296, 39.909]}, "properties": {"name": "空军总医院", "district": "丰台区", "amenity": "hospital"}}, {"type": "Feature", "geometry": {"type": "Point", "coordinates": [116.206, 39.916]}, "properties": {"name": "北京大学首钢医院", "district": "石景山区", "amenity": "hospital"}}, {"type": "Feature", "geometry": {"type": "Point", "coordinates": [116.714, 39.907]}, "properties": {"name": "北京友谊医院通州院区", "district": "通州区", "amenity": "hospital"}}, {"type": "Feature", "geometry": {"type": "Point", "coordinates": [116.404, 40.073]}, "properties": {"name": "北京清华长庚医院", "district": "昌平区", "amenity": "hospital"}}, {"type": "Feature", "geometry": {"type": "Point", "coordinates": [116.341, 39.727]}, "properties": {"name": "大兴区人民医院", "district": "大兴区", "amenity": "hospital"}}, {"type": "Feature", "geometry": {"type": "Point", "coordinates": [116.142, 39.733]}, "properties": {"name": "良乡医院", "district": "房山区", "amenity": "hospital"}}, {"type": "Feature", "geometry": {"type": "Point", "coordinates": [116.103, 39.941]}, "properties": {"name": "北京京煤集团总医院", "district": "门头沟区", "amenity": "hospital"}}, {"type": "Feature", "geometry": {"type": "Point", "coordinates": [117.121, 40.142]}, "properties": {"name": "平谷区医院", "district": "平谷区", "amenity": "hospital"}}, {"type": "Feature", "geometry": {"type": "Point", "coordinates": [116.639, 40.325]}, "properties": {"name": "北京怀柔医院", "district": "怀柔区", "amenity": "hospital"}}, {"type": "Feature", "geometry": {"type": "Point", "coordinates": [116.843, 40.374]}, "properties": {"name": "密云区医院", "district": "密云区", "amenity": "hospital"}}, {"type": "Feature", "geometry": {"type": "Point", "coordinates": [116.862, 40.465]}, "properties": {"name": "延庆区医院", "district": "延庆区", "amenity": "hospital"}}, {"type": "Feature", "geometry": {"type": "Point", "coordinates": [116.656, 40.13]}, "properties": {"name": "顺义区医院", "district": "顺义区", "amenity": "hospital"}}]}