{"type": "FeatureCollection", "features": [{"type": "Feature", "geometry": {"type": "Point", "coordinates": [116.4268666, 39.9058338]}, "properties": {"name": "中国海关博物馆", "category": "博物馆", "district": "东城区", "osmId": "way/637237606"}}, {"type": "Feature", "geometry": {"type": "Point", "coordinates": [116.4027592, 39.9238436]}, "properties": {"name": "中国美术馆", "category": "博物馆", "district": "东城区", "osmId": "way/131710744"}}, {"type": "Feature", "geometry": {"type": "Point", "coordinates": [116.4263398, 39.9315091]}, "properties": {"name": "保利艺术博物馆", "category": "博物馆", "district": "东城区", "osmId": "node/5821294053"}}, {"type": "Feature", "geometry": {"type": "Point", "coordinates": [116.4083494, 39.9143682]}, "properties": {"name": "天福茗茶", "category": "博物馆", "district": "东城区", "osmId": "node/4284096489"}}, {"type": "Feature", "geometry": {"type": "Point", "coordinates": [116.4065838, 39.90758]}, "properties": {"name": "王府井古人类文化遗址博物馆", "category": "博物馆", "district": "东城区", "osmId": "node/6039590930"}}, {"type": "Feature", "geometry": {"type": "Point", "coordinates": [116.4282439, 39.8822359]}, "properties": {"name": "百工坊", "category": "博物馆", "district": "东城区", "osmId": "node/3809864708"}}, {"type": "Feature", "geometry": {"type": "Point", "coordinates": [116.3928235, 39.9185075]}, "properties": {"name": "钟表馆", "category": "博物馆", "district": "东城区", "osmId": "way/43525086"}}, {"type": "Feature", "geometry": {"type": "Point", "coordinates": [116.3252954, 39.7419714]}, "properties": {"name": "中国印刷博物馆", "category": "博物馆", "district": "大兴区", "osmId": "way/363347726"}}, {"type": "Feature", "geometry": {"type": "Point", "coordinates": [115.9742944, 40.4544933]}, "properties": {"name": "延庆地质博物馆", "category": "博物馆", "district": "延庆区", "osmId": "way/500293757"}}, {"type": "Feature", "geometry": {"type": "Point", "coordinates": [116.0007179, 40.3571615]}, "properties": {"name": "詹天佑纪念馆", "category": "博物馆", "district": "延庆区", "osmId": "way/256289715"}}, {"type": "Feature", "geometry": {"type": "Point", "coordinates": [116.6735546, 40.4067973]}, "properties": {"name": "中国科学院大学校史馆", "category": "博物馆", "district": "怀柔区", "osmId": "node/9108336967"}}, {"type": "Feature", "geometry": {"type": "Point", "coordinates": [116.6735939, 40.4069446]}, "properties": {"name": "李佩先生纪念馆", "category": "博物馆", "district": "怀柔区", "osmId": "node/9108336968"}}, {"type": "Feature", "geometry": {"type": "Point", "coordinates": [116.4035701, 40.868639]}, "properties": {"name": "道德坑红色体验基地", "category": "博物馆", "district": "怀柔区", "osmId": "way/963388302"}}, {"type": "Feature", "geometry": {"type": "Point", "coordinates": [116.5384527, 40.4161925]}, "properties": {"name": "长城文化展览中心", "category": "博物馆", "district": "怀柔区", "osmId": "way/543906944"}}, {"type": "Feature", "geometry": {"type": "Point", "coordinates": [115.8682897, 39.5839661]}, "properties": {"name": "房山世界地质公园博物馆", "category": "博物馆", "district": "房山区", "osmId": "way/417500300"}}, {"type": "Feature", "geometry": {"type": "Point", "coordinates": [116.2065041, 40.2253939]}, "properties": {"name": "北京十三陵明皇蜡像宫", "category": "博物馆", "district": "昌平区", "osmId": "way/607261337"}}, {"type": "Feature", "geometry": {"type": "Point", "coordinates": [116.3930772, 40.0023937]}, "properties": {"name": "中国共产党历史展览馆", "category": "博物馆", "district": "朝阳区", "osmId": "way/955695642"}}, {"type": "Feature", "geometry": {"type": "Point", "coordinates": [116.5108976, 39.9960608]}, "properties": {"name": "中国铁道博物馆（东郊展馆）", "category": "博物馆", "district": "朝阳区", "osmId": "way/1115654896"}}, {"type": "Feature", "geometry": {"type": "Point", "coordinates": [116.5096658, 39.9966049]}, "properties": {"name": "中国铁道博物馆（东郊展馆）机车车辆展厅", "category": "博物馆", "district": "朝阳区", "osmId": "way/25199712"}}, {"type": "Feature", "geometry": {"type": "Point", "coordinates": [116.464783, 39.8842028]}, "properties": {"name": "北京市档案馆新馆", "category": "博物馆", "district": "朝阳区", "osmId": "way/1117121479"}}, {"type": "Feature", "geometry": {"type": "Point", "coordinates": [116.3751881, 40.0011852]}, "properties": {"name": "国家动物博物馆", "category": "博物馆", "district": "朝阳区", "osmId": "way/161296938"}}, {"type": "Feature", "geometry": {"type": "Point", "coordinates": [116.3882615, 39.9977994]}, "properties": {"name": "奥运工程建设馆", "category": "博物馆", "district": "朝阳区", "osmId": "way/238533954"}}, {"type": "Feature", "geometry": {"type": "Point", "coordinates": [116.3027596, 39.9833085]}, "properties": {"name": "中国化工博物馆", "category": "博物馆", "district": "海淀区", "osmId": "node/8744474533"}}, {"type": "Feature", "geometry": {"type": "Point", "coordinates": [116.3278848, 39.935983]}, "properties": {"name": "中国古动物馆", "category": "博物馆", "district": "海淀区", "osmId": "way/256653719"}}, {"type": "Feature", "geometry": {"type": "Point", "coordinates": [116.2107587, 39.989467]}, "properties": {"name": "中国古植物馆", "category": "博物馆", "district": "海淀区", "osmId": "node/8730187011"}}, {"type": "Feature", "geometry": {"type": "Point", "coordinates": [116.3273782, 39.998242]}, "properties": {"name": "中国营造学社纪念馆", "category": "博物馆", "district": "海淀区", "osmId": "node/10188911953"}}, {"type": "Feature", "geometry": {"type": "Point", "coordinates": [116.3341558, 39.949322]}, "properties": {"name": "交大校史博物馆", "category": "博物馆", "district": "海淀区", "osmId": "node/1678269097"}}, {"type": "Feature", "geometry": {"type": "Point", "coordinates": [116.3445072, 39.9808455]}, "properties": {"name": "北京航空航天博物馆", "category": "博物馆", "district": "海淀区", "osmId": "way/190444425"}}, {"type": "Feature", "geometry": {"type": "Point", "coordinates": [116.3054941, 39.9457384]}, "properties": {"name": "北京艺术博物馆", "category": "博物馆", "district": "海淀区", "osmId": "node/1977218858"}}, {"type": "Feature", "geometry": {"type": "Point", "coordinates": [116.3177326, 39.9418409]}, "properties": {"name": "国家典籍博物馆", "category": "博物馆", "district": "海淀区", "osmId": "node/9007682644"}}, {"type": "Feature", "geometry": {"type": "Point", "coordinates": [116.3056549, 39.9691941]}, "properties": {"name": "校友之家", "category": "博物馆", "district": "海淀区", "osmId": "node/5169323436"}}, {"type": "Feature", "geometry": {"type": "Point", "coordinates": [116.3232202, 40.0007669]}, "properties": {"name": "校史馆", "category": "博物馆", "district": "海淀区", "osmId": "way/226671389"}}, {"type": "Feature", "geometry": {"type": "Point", "coordinates": [116.3000759, 39.991987]}, "properties": {"name": "校史馆", "category": "博物馆", "district": "海淀区", "osmId": "way/226704254"}}, {"type": "Feature", "geometry": {"type": "Point", "coordinates": [116.2101916, 39.990642]}, "properties": {"name": "植物标本馆", "category": "博物馆", "district": "海淀区", "osmId": "node/8730187010"}}, {"type": "Feature", "geometry": {"type": "Point", "coordinates": [116.3256132, 39.9902189]}, "properties": {"name": "清华园车站站房", "category": "博物馆", "district": "海淀区", "osmId": "way/122100032"}}, {"type": "Feature", "geometry": {"type": "Point", "coordinates": [116.3221076, 40.002298]}, "properties": {"name": "清华大学科学博物馆（筹）", "category": "博物馆", "district": "海淀区", "osmId": "node/10198891212"}}, {"type": "Feature", "geometry": {"type": "Point", "coordinates": [116.329475, 40.0005821]}, "properties": {"name": "清华大学艺术博物馆", "category": "博物馆", "district": "海淀区", "osmId": "way/451335313"}}, {"type": "Feature", "geometry": {"type": "Point", "coordinates": [116.299811, 39.9944272]}, "properties": {"name": "赛克勒考古与艺术博物馆", "category": "博物馆", "district": "海淀区", "osmId": "way/240832217"}}, {"type": "Feature", "geometry": {"type": "Point", "coordinates": [116.155674, 39.9362881]}, "properties": {"name": "中国冰川博物馆", "category": "博物馆", "district": "石景山区", "osmId": "node/271818150"}}, {"type": "Feature", "geometry": {"type": "Point", "coordinates": [116.1451608, 39.9209634]}, "properties": {"name": "冬奥展示中心", "category": "博物馆", "district": "石景山区", "osmId": "way/976177323"}}, {"type": "Feature", "geometry": {"type": "Point", "coordinates": [116.1994327, 39.927387]}, "properties": {"name": "北方工业大学校史馆", "category": "博物馆", "district": "石景山区", "osmId": "node/8505447127"}}, {"type": "Feature", "geometry": {"type": "Point", "coordinates": [116.1478135, 39.9191947]}, "properties": {"name": "秀池水下展厅", "category": "博物馆", "district": "石景山区", "osmId": "way/976177309"}}, {"type": "Feature", "geometry": {"type": "Point", "coordinates": [116.3865143, 39.9688362]}, "properties": {"name": "中国科学技术馆旧址", "category": "博物馆", "district": "西城区", "osmId": "way/55883845"}}, {"type": "Feature", "geometry": {"type": "Point", "coordinates": [116.3941525, 39.8984657]}, "properties": {"name": "中国铁道博物馆（正阳门展馆）", "category": "博物馆", "district": "西城区", "osmId": "way/925188503"}}, {"type": "Feature", "geometry": {"type": "Point", "coordinates": [116.3667691, 39.917861]}, "properties": {"name": "北平图书馆旧址", "category": "博物馆", "district": "西城区", "osmId": "way/891420295"}}, {"type": "Feature", "geometry": {"type": "Point", "coordinates": [116.3680291, 39.9465508]}, "properties": {"name": "汇通祠", "category": "博物馆", "district": "西城区", "osmId": "way/493378159"}}, {"type": "Feature", "geometry": {"type": "Point", "coordinates": [116.3358736, 39.9050194]}, "properties": {"name": "首都博物馆", "category": "博物馆", "district": "西城区", "osmId": "way/136998797"}}, {"type": "Feature", "geometry": {"type": "Point", "coordinates": [116.710629, 39.879925]}, "properties": {"name": "北京大运河博物馆", "category": "博物馆", "district": "通州区", "osmId": "way/1130934228"}}]}