{"type": "FeatureCollection", "features": [{"type": "Feature", "geometry": {"type": "Point", "coordinates": [116.4102477, 39.9229744]}, "properties": {"name": "东四", "category": "地铁站", "district": "东城区", "osmId": "node/5305505990"}}, {"type": "Feature", "geometry": {"type": "Point", "coordinates": [116.4280068, 39.932287]}, "properties": {"name": "东四十条", "category": "地铁站", "district": "东城区", "osmId": "node/6497754454"}}, {"type": "Feature", "geometry": {"type": "Point", "coordinates": [116.4285738, 39.941652]}, "properties": {"name": "东直门", "category": "地铁站", "district": "东城区", "osmId": "node/10655378373"}}, {"type": "Feature", "geometry": {"type": "Point", "coordinates": [116.4276776, 39.9397031]}, "properties": {"name": "东直门", "category": "地铁站", "district": "东城区", "osmId": "node/10655378374"}}, {"type": "Feature", "geometry": {"type": "Point", "coordinates": [116.4294829, 39.9400378]}, "properties": {"name": "东直门", "category": "地铁站", "district": "东城区", "osmId": "node/10655378375"}}, {"type": "Feature", "geometry": {"type": "Point", "coordinates": [116.4122352, 39.9573887]}, "properties": {"name": "和平里北街", "category": "地铁站", "district": "东城区", "osmId": "node/7896842489"}}, {"type": "Feature", "geometry": {"type": "Point", "coordinates": [116.4145694, 39.8822567]}, "properties": {"name": "天坛东门", "category": "地铁站", "district": "东城区", "osmId": "node/7896842490"}}, {"type": "Feature", "geometry": {"type": "Point", "coordinates": [116.4020676, 39.9476674]}, "properties": {"name": "安定门", "category": "地铁站", "district": "东城区", "osmId": "node/6724644889"}}, {"type": "Feature", "geometry": {"type": "Point", "coordinates": [116.4119567, 39.8997371]}, "properties": {"name": "崇文门", "category": "地铁站", "district": "东城区", "osmId": "node/5430420858"}}, {"type": "Feature", "geometry": {"type": "Point", "coordinates": [116.4277207, 39.8922863]}, "properties": {"name": "广渠门内", "category": "地铁站", "district": "东城区", "osmId": "node/3369459840"}}, {"type": "Feature", "geometry": {"type": "Point", "coordinates": [116.4430351, 39.8923066]}, "properties": {"name": "广渠门外", "category": "地铁站", "district": "东城区", "osmId": "node/3369459838"}}, {"type": "Feature", "geometry": {"type": "Point", "coordinates": [116.4292321, 39.9071594]}, "properties": {"name": "建国门", "category": "地铁站", "district": "东城区", "osmId": "node/5430497283"}}, {"type": "Feature", "geometry": {"type": "Point", "coordinates": [116.4049409, 39.8636494]}, "properties": {"name": "景泰", "category": "地铁站", "district": "东城区", "osmId": "node/3367857703"}}, {"type": "Feature", "geometry": {"type": "Point", "coordinates": [116.4266211, 39.9568025]}, "properties": {"name": "柳芳", "category": "地铁站", "district": "东城区", "osmId": "node/6617852358"}}, {"type": "Feature", "geometry": {"type": "Point", "coordinates": [116.4022485, 39.8912849]}, "properties": {"name": "桥湾", "category": "地铁站", "district": "东城区", "osmId": "node/3369459839"}}, {"type": "Feature", "geometry": {"type": "Point", "coordinates": [116.4118355, 39.9154103]}, "properties": {"name": "灯市口", "category": "地铁站", "district": "东城区", "osmId": "node/5305505989"}}, {"type": "Feature", "geometry": {"type": "Point", "coordinates": [116.4052789, 39.9069496]}, "properties": {"name": "王府井", "category": "地铁站", "district": "东城区", "osmId": "node/6617849503"}}, {"type": "Feature", "geometry": {"type": "Point", "coordinates": [116.4126199, 39.8917025]}, "properties": {"name": "磁器口", "category": "地铁站", "district": "东城区", "osmId": "node/3369459846"}}, {"type": "Feature", "geometry": {"type": "Point", "coordinates": [116.4154612, 39.8643287]}, "properties": {"name": "蒲黄榆", "category": "地铁站", "district": "东城区", "osmId": "node/3367857705"}}, {"type": "Feature", "geometry": {"type": "Point", "coordinates": [116.4049246, 39.9147047]}, "properties": {"name": "金鱼胡同", "category": "地铁站", "district": "东城区", "osmId": "node/9379477284"}}, {"type": "Feature", "geometry": {"type": "Point", "coordinates": [116.3816795, 39.8675967]}, "properties": {"name": "陶然桥", "category": "地铁站", "district": "东城区", "osmId": "node/3367857706"}}, {"type": "Feature", "geometry": {"type": "Point", "coordinates": [116.4101645, 39.9469713]}, "properties": {"name": "雍和宫", "category": "地铁站", "district": "东城区", "osmId": "node/5305505987"}}, {"type": "Feature", "geometry": {"type": "Point", "coordinates": [116.4115432, 39.9479275]}, "properties": {"name": "雍和宫", "category": "地铁站", "district": "东城区", "osmId": "node/5305505988"}}, {"type": "Feature", "geometry": {"type": "Point", "coordinates": [116.2881665, 39.8652402]}, "properties": {"name": "七里庄", "category": "地铁站", "district": "丰台区", "osmId": "node/3367038996"}}, {"type": "Feature", "geometry": {"type": "Point", "coordinates": [116.3144367, 39.8661164]}, "properties": {"name": "东管头", "category": "地铁站", "district": "丰台区", "osmId": "node/3367069254"}}, {"type": "Feature", "geometry": {"type": "Point", "coordinates": [116.3166795, 39.8535213]}, "properties": {"name": "东管头南", "category": "地铁站", "district": "丰台区", "osmId": "node/8277164642"}}, {"type": "Feature", "geometry": {"type": "Point", "coordinates": [116.2877862, 39.8541721]}, "properties": {"name": "丰台东大街", "category": "地铁站", "district": "丰台区", "osmId": "node/7860304589"}}, {"type": "Feature", "geometry": {"type": "Point", "coordinates": [116.2912488, 39.8239138]}, "properties": {"name": "丰台科技园", "category": "地铁站", "district": "丰台区", "osmId": "node/7860304588"}}, {"type": "Feature", "geometry": {"type": "Point", "coordinates": [116.3256029, 39.8662759]}, "properties": {"name": "丽泽商务区", "category": "地铁站", "district": "丰台区", "osmId": "node/3367069255"}}, {"type": "Feature", "geometry": {"type": "Point", "coordinates": [116.308808, 39.8857143]}, "properties": {"name": "六里桥东", "category": "地铁站", "district": "丰台区", "osmId": "node/7860304590"}}, {"type": "Feature", "geometry": {"type": "Point", "coordinates": [116.447588, 39.8506149]}, "properties": {"name": "分钟寺", "category": "地铁站", "district": "丰台区", "osmId": "node/5372350033"}}, {"type": "Feature", "geometry": {"type": "Point", "coordinates": [116.3727527, 39.8635548]}, "properties": {"name": "北京南站", "category": "地铁站", "district": "丰台区", "osmId": "node/5158580594"}}, {"type": "Feature", "geometry": {"type": "Point", "coordinates": [116.3733186, 39.8641006]}, "properties": {"name": "北京南站", "category": "地铁站", "district": "丰台区", "osmId": "node/8658952312"}}, {"type": "Feature", "geometry": {"type": "Point", "coordinates": [116.3151056, 39.8935411]}, "properties": {"name": "北京西站", "category": "地铁站", "district": "丰台区", "osmId": "node/5463450278"}}, {"type": "Feature", "geometry": {"type": "Point", "coordinates": [116.1956719, 39.8599934]}, "properties": {"name": "园博园", "category": "地铁站", "district": "丰台区", "osmId": "node/5442227596"}}, {"type": "Feature", "geometry": {"type": "Point", "coordinates": [116.2688628, 39.864019]}, "properties": {"name": "大井", "category": "地铁站", "district": "丰台区", "osmId": "node/3365609789"}}, {"type": "Feature", "geometry": {"type": "Point", "coordinates": [116.2344523, 39.8583275]}, "properties": {"name": "大瓦窑", "category": "地铁站", "district": "丰台区", "osmId": "node/3365609790"}}, {"type": "Feature", "geometry": {"type": "Point", "coordinates": [116.2854666, 39.8064524]}, "properties": {"name": "大葆台", "category": "地铁站", "district": "丰台区", "osmId": "node/8073272027"}}, {"type": "Feature", "geometry": {"type": "Point", "coordinates": [116.3402526, 39.8225567]}, "properties": {"name": "新发地", "category": "地铁站", "district": "丰台区", "osmId": "node/9379477293"}}, {"type": "Feature", "geometry": {"type": "Point", "coordinates": [116.4339348, 39.8646354]}, "properties": {"name": "方庄", "category": "地铁站", "district": "丰台区", "osmId": "node/3367977138"}}, {"type": "Feature", "geometry": {"type": "Point", "coordinates": [116.3600963, 39.8614067]}, "properties": {"name": "景风门", "category": "地铁站", "district": "丰台区", "osmId": "node/3367069256"}}, {"type": "Feature", "geometry": {"type": "Point", "coordinates": [116.3580843, 39.8626316]}, "properties": {"name": "景风门", "category": "地铁站", "district": "丰台区", "osmId": "node/9385116436"}}, {"type": "Feature", "geometry": {"type": "Point", "coordinates": [116.3067798, 39.818274]}, "properties": {"name": "白盆窑", "category": "地铁站", "district": "丰台区", "osmId": "node/7631365912"}}, {"type": "Feature", "geometry": {"type": "Point", "coordinates": [116.4074126, 39.8444927]}, "properties": {"name": "石榴庄", "category": "地铁站", "district": "丰台区", "osmId": "node/7896877682"}}, {"type": "Feature", "geometry": {"type": "Point", "coordinates": [116.3273554, 39.8431736]}, "properties": {"name": "纪家庙", "category": "地铁站", "district": "丰台区", "osmId": "node/7896877679"}}, {"type": "Feature", "geometry": {"type": "Point", "coordinates": [116.3139452, 39.8278468]}, "properties": {"name": "花乡东桥", "category": "地铁站", "district": "丰台区", "osmId": "node/7631365924"}}, {"type": "Feature", "geometry": {"type": "Point", "coordinates": [116.3454124, 39.8445995]}, "properties": {"name": "草桥", "category": "地铁站", "district": "丰台区", "osmId": "node/9122347219"}}, {"type": "Feature", "geometry": {"type": "Point", "coordinates": [116.3428438, 39.8460959]}, "properties": {"name": "草桥", "category": "地铁站", "district": "丰台区", "osmId": "node/9385116432"}}, {"type": "Feature", "geometry": {"type": "Point", "coordinates": [116.3424361, 39.8461391]}, "properties": {"name": "草桥", "category": "地铁站", "district": "丰台区", "osmId": "node/9385116433"}}, {"type": "Feature", "geometry": {"type": "Point", "coordinates": [116.3366819, 39.8662594]}, "properties": {"name": "菜户营", "category": "地铁站", "district": "丰台区", "osmId": "node/3367069257"}}, {"type": "Feature", "geometry": {"type": "Point", "coordinates": [116.2978076, 39.8652242]}, "properties": {"name": "西局", "category": "地铁站", "district": "丰台区", "osmId": "node/3367044891"}}, {"type": "Feature", "geometry": {"type": "Point", "coordinates": [116.3497096, 39.859977]}, "properties": {"name": "西铁营", "category": "地铁站", "district": "丰台区", "osmId": "node/9365006124"}}, {"type": "Feature", "geometry": {"type": "Point", "coordinates": [116.2483861, 39.8640535]}, "properties": {"name": "郭庄子", "category": "地铁站", "district": "丰台区", "osmId": "node/3365609791"}}, {"type": "Feature", "geometry": {"type": "Point", "coordinates": [116.3138654, 39.8429666]}, "properties": {"name": "首经贸", "category": "地铁站", "district": "丰台区", "osmId": "node/8277164621"}}, {"type": "Feature", "geometry": {"type": "Point", "coordinates": [116.365207, 39.8516352]}, "properties": {"name": "马家堡", "category": "地铁站", "district": "丰台区", "osmId": "node/7861046856"}}, {"type": "Feature", "geometry": {"type": "Point", "coordinates": [116.4995335, 39.8017615]}, "properties": {"name": "万源街", "category": "地铁站", "district": "大兴区", "osmId": "node/5444694219"}}, {"type": "Feature", "geometry": {"type": "Point", "coordinates": [116.3130186, 39.7111046]}, "properties": {"name": "义和庄", "category": "地铁站", "district": "大兴区", "osmId": "node/7860703076"}}, {"type": "Feature", "geometry": {"type": "Point", "coordinates": [116.4742673, 39.801744]}, "properties": {"name": "亦庄桥", "category": "地铁站", "district": "大兴区", "osmId": "node/8073260826"}}, {"type": "Feature", "geometry": {"type": "Point", "coordinates": [116.3594824, 39.7340741]}, "properties": {"name": "大兴新城", "category": "地铁站", "district": "大兴区", "osmId": "node/6818020472"}}, {"type": "Feature", "geometry": {"type": "Point", "coordinates": [116.3139055, 39.6689886]}, "properties": {"name": "天宫院", "category": "地铁站", "district": "大兴区", "osmId": "node/5428310397"}}, {"type": "Feature", "geometry": {"type": "Point", "coordinates": [116.4547308, 39.8056107]}, "properties": {"name": "旧宫", "category": "地铁站", "district": "大兴区", "osmId": "node/8073260825"}}, {"type": "Feature", "geometry": {"type": "Point", "coordinates": [116.3260337, 39.7518055]}, "properties": {"name": "枣园", "category": "地铁站", "district": "大兴区", "osmId": "node/5444440441"}}, {"type": "Feature", "geometry": {"type": "Point", "coordinates": [116.3263162, 39.7417561]}, "properties": {"name": "清源路", "category": "地铁站", "district": "大兴区", "osmId": "node/7860703073"}}, {"type": "Feature", "geometry": {"type": "Point", "coordinates": [116.3156802, 39.6851077]}, "properties": {"name": "生物医药基地", "category": "地铁站", "district": "大兴区", "osmId": "node/5441516142"}}, {"type": "Feature", "geometry": {"type": "Point", "coordinates": [116.507463, 39.7920207]}, "properties": {"name": "荣京东街", "category": "地铁站", "district": "大兴区", "osmId": "node/8073260827"}}, {"type": "Feature", "geometry": {"type": "Point", "coordinates": [116.515857, 39.7816956]}, "properties": {"name": "荣昌东街", "category": "地铁站", "district": "大兴区", "osmId": "node/8073260828"}}, {"type": "Feature", "geometry": {"type": "Point", "coordinates": [116.322677, 39.7883939]}, "properties": {"name": "西红门", "category": "地铁站", "district": "大兴区", "osmId": "node/7860703071"}}, {"type": "Feature", "geometry": {"type": "Point", "coordinates": [116.3244805, 39.7730301]}, "properties": {"name": "高米店北", "category": "地铁站", "district": "大兴区", "osmId": "node/7860703072"}}, {"type": "Feature", "geometry": {"type": "Point", "coordinates": [116.325694, 39.7622885]}, "properties": {"name": "高米店南", "category": "地铁站", "district": "大兴区", "osmId": "node/5441536634"}}, {"type": "Feature", "geometry": {"type": "Point", "coordinates": [116.3266541, 39.7215049]}, "properties": {"name": "黄村火车站", "category": "地铁站", "district": "大兴区", "osmId": "node/7860703075"}}, {"type": "Feature", "geometry": {"type": "Point", "coordinates": [116.3265186, 39.730422]}, "properties": {"name": "黄村西大街", "category": "地铁站", "district": "大兴区", "osmId": "node/7860703074"}}, {"type": "Feature", "geometry": {"type": "Point", "coordinates": [116.0339981, 39.7085836]}, "properties": {"name": "大石河东", "category": "地铁站", "district": "房山区", "osmId": "node/9153343830"}}, {"type": "Feature", "geometry": {"type": "Point", "coordinates": [116.1788414, 39.7465971]}, "properties": {"name": "广阳城", "category": "地铁站", "district": "房山区", "osmId": "node/8073272030"}}, {"type": "Feature", "geometry": {"type": "Point", "coordinates": [115.9835976, 39.7046285]}, "properties": {"name": "房山城关", "category": "地铁站", "district": "房山区", "osmId": "node/5402956432"}}, {"type": "Feature", "geometry": {"type": "Point", "coordinates": [116.0551386, 39.7122214]}, "properties": {"name": "星城", "category": "地铁站", "district": "房山区", "osmId": "node/9153343831"}}, {"type": "Feature", "geometry": {"type": "Point", "coordinates": [116.1833797, 39.759377]}, "properties": {"name": "篱笆房", "category": "地铁站", "district": "房山区", "osmId": "node/8073272029"}}, {"type": "Feature", "geometry": {"type": "Point", "coordinates": [116.0804553, 39.723022]}, "properties": {"name": "紫草坞", "category": "地铁站", "district": "房山区", "osmId": "node/9153343832"}}, {"type": "Feature", "geometry": {"type": "Point", "coordinates": [116.1342397, 39.7218824]}, "properties": {"name": "良乡南关", "category": "地铁站", "district": "房山区", "osmId": "node/5430390454"}}, {"type": "Feature", "geometry": {"type": "Point", "coordinates": [116.1702973, 39.7219018]}, "properties": {"name": "良乡大学城", "category": "地铁站", "district": "房山区", "osmId": "node/8073272032"}}, {"type": "Feature", "geometry": {"type": "Point", "coordinates": [116.1773354, 39.728465]}, "properties": {"name": "良乡大学城北", "category": "地铁站", "district": "房山区", "osmId": "node/8073272031"}}, {"type": "Feature", "geometry": {"type": "Point", "coordinates": [116.1500157, 39.7218688]}, "properties": {"name": "良乡大学城西", "category": "地铁站", "district": "房山区", "osmId": "node/8073272033"}}, {"type": "Feature", "geometry": {"type": "Point", "coordinates": [116.1189698, 39.7218523]}, "properties": {"name": "苏庄", "category": "地铁站", "district": "房山区", "osmId": "node/8073272034"}}, {"type": "Feature", "geometry": {"type": "Point", "coordinates": [116.2065044, 39.7625141]}, "properties": {"name": "长阳", "category": "地铁站", "district": "房山区", "osmId": "node/8073272028"}}, {"type": "Feature", "geometry": {"type": "Point", "coordinates": [116.0739687, 39.715288]}, "properties": {"name": "阎村", "category": "地铁站", "district": "房山区", "osmId": "node/5402953665"}}, {"type": "Feature", "geometry": {"type": "Point", "coordinates": [116.094557, 39.7275574]}, "properties": {"name": "阎村东", "category": "地铁站", "district": "房山区", "osmId": "node/5779155490"}}, {"type": "Feature", "geometry": {"type": "Point", "coordinates": [116.000048, 39.7002557]}, "properties": {"name": "饶乐府", "category": "地铁站", "district": "房山区", "osmId": "node/7796853448"}}, {"type": "Feature", "geometry": {"type": "Point", "coordinates": [116.0105495, 39.7037753]}, "properties": {"name": "马各庄", "category": "地铁站", "district": "房山区", "osmId": "node/7796839024"}}, {"type": "Feature", "geometry": {"type": "Point", "coordinates": [116.2754466, 40.2206969]}, "properties": {"name": "北邵洼", "category": "地铁站", "district": "昌平区", "osmId": "node/5305506017"}}, {"type": "Feature", "geometry": {"type": "Point", "coordinates": [116.2018465, 40.2386353]}, "properties": {"name": "十三陵景区", "category": "地铁站", "district": "昌平区", "osmId": "node/5305506014"}}, {"type": "Feature", "geometry": {"type": "Point", "coordinates": [116.281971, 40.2066479]}, "properties": {"name": "南邵", "category": "地铁站", "district": "昌平区", "osmId": "node/5305506016"}}, {"type": "Feature", "geometry": {"type": "Point", "coordinates": [116.329755, 40.069525]}, "properties": {"name": "回龙观", "category": "地铁站", "district": "昌平区", "osmId": "node/5441470420"}}, {"type": "Feature", "geometry": {"type": "Point", "coordinates": [116.3571849, 40.0797507]}, "properties": {"name": "回龙观东大街", "category": "地铁站", "district": "昌平区", "osmId": "node/5305506006"}}, {"type": "Feature", "geometry": {"type": "Point", "coordinates": [116.3245924, 40.0772781]}, "properties": {"name": "回龙观西大街", "category": "地铁站", "district": "昌平区", "osmId": "node/13410014898"}}, {"type": "Feature", "geometry": {"type": "Point", "coordinates": [116.4359844, 40.0671005]}, "properties": {"name": "天通苑东", "category": "地铁站", "district": "昌平区", "osmId": "node/11478693941"}}, {"type": "Feature", "geometry": {"type": "Point", "coordinates": [116.4378145, 40.0670514]}, "properties": {"name": "天通苑东", "category": "地铁站", "district": "昌平区", "osmId": "node/13410044004"}}, {"type": "Feature", "geometry": {"type": "Point", "coordinates": [116.4067673, 40.0820885]}, "properties": {"name": "天通苑北", "category": "地铁站", "district": "昌平区", "osmId": "node/5687495579"}}, {"type": "Feature", "geometry": {"type": "Point", "coordinates": [116.4202773, 40.0727436]}, "properties": {"name": "太平庄", "category": "地铁站", "district": "昌平区", "osmId": "node/13410044003"}}, {"type": "Feature", "geometry": {"type": "Point", "coordinates": [116.2878759, 40.1296641]}, "properties": {"name": "巩华城", "category": "地铁站", "district": "昌平区", "osmId": "node/5305506010"}}, {"type": "Feature", "geometry": {"type": "Point", "coordinates": [116.3356615, 40.0788401]}, "properties": {"name": "文华路", "category": "地铁站", "district": "昌平区", "osmId": "node/13410014899"}}, {"type": "Feature", "geometry": {"type": "Point", "coordinates": [116.2274869, 40.2193139]}, "properties": {"name": "昌平", "category": "地铁站", "district": "昌平区", "osmId": "node/5305506015"}}, {"type": "Feature", "geometry": {"type": "Point", "coordinates": [116.2567145, 40.2205477]}, "properties": {"name": "昌平东关", "category": "地铁站", "district": "昌平区", "osmId": "node/5305506018"}}, {"type": "Feature", "geometry": {"type": "Point", "coordinates": [116.1893808, 40.243313]}, "properties": {"name": "昌平西山口", "category": "地铁站", "district": "昌平区", "osmId": "node/5305506013"}}, {"type": "Feature", "geometry": {"type": "Point", "coordinates": [116.4605159, 40.1141592]}, "properties": {"name": "未来科技城", "category": "地铁站", "district": "昌平区", "osmId": "node/11478693919"}}, {"type": "Feature", "geometry": {"type": "Point", "coordinates": [116.2827677, 40.1470443]}, "properties": {"name": "沙河", "category": "地铁站", "district": "昌平区", "osmId": "node/5305506011"}}, {"type": "Feature", "geometry": {"type": "Point", "coordinates": [116.2743857, 40.1633993]}, "properties": {"name": "沙河高教园", "category": "地铁站", "district": "昌平区", "osmId": "node/5305506012"}}, {"type": "Feature", "geometry": {"type": "Point", "coordinates": [116.288183, 40.093573]}, "properties": {"name": "生命科学园", "category": "地铁站", "district": "昌平区", "osmId": "node/8073325263"}}, {"type": "Feature", "geometry": {"type": "Point", "coordinates": [116.3538978, 40.0704794]}, "properties": {"name": "霍营", "category": "地铁站", "district": "昌平区", "osmId": "node/5305506001"}}, {"type": "Feature", "geometry": {"type": "Point", "coordinates": [116.3544475, 40.0693567]}, "properties": {"name": "霍营", "category": "地铁站", "district": "昌平区", "osmId": "node/5430532540"}}, {"type": "Feature", "geometry": {"type": "Point", "coordinates": [116.3698028, 40.0805687]}, "properties": {"name": "霍营东", "category": "地铁站", "district": "昌平区", "osmId": "node/13410044001"}}, {"type": "Feature", "geometry": {"type": "Point", "coordinates": [116.3132033, 40.0695732]}, "properties": {"name": "龙泽", "category": "地铁站", "district": "昌平区", "osmId": "node/6617852360"}}, {"type": "Feature", "geometry": {"type": "Point", "coordinates": [116.4455603, 39.921482]}, "properties": {"name": "东大桥", "category": "地铁站", "district": "朝阳区", "osmId": "node/7896877680"}}, {"type": "Feature", "geometry": {"type": "Point", "coordinates": [116.4442134, 39.9216405]}, "properties": {"name": "东大桥", "category": "地铁站", "district": "朝阳区", "osmId": "node/13417518487"}}, {"type": "Feature", "geometry": {"type": "Point", "coordinates": [116.4611561, 40.0091272]}, "properties": {"name": "东湖渠", "category": "地铁站", "district": "朝阳区", "osmId": "node/3369356928"}}, {"type": "Feature", "geometry": {"type": "Point", "coordinates": [116.4789687, 39.9583029]}, "properties": {"name": "东风北桥", "category": "地铁站", "district": "朝阳区", "osmId": "node/3369001427"}}, {"type": "Feature", "geometry": {"type": "Point", "coordinates": [116.4716849, 39.8921089]}, "properties": {"name": "九龙山", "category": "地铁站", "district": "朝阳区", "osmId": "node/3369001428"}}, {"type": "Feature", "geometry": {"type": "Point", "coordinates": [116.4562709, 39.9482568]}, "properties": {"name": "亮马桥", "category": "地铁站", "district": "朝阳区", "osmId": "node/5448569279"}}, {"type": "Feature", "geometry": {"type": "Point", "coordinates": [116.425641, 39.9669843]}, "properties": {"name": "光熙门", "category": "地铁站", "district": "朝阳区", "osmId": "node/6617852357"}}, {"type": "Feature", "geometry": {"type": "Point", "coordinates": [116.4242608, 39.9680699]}, "properties": {"name": "光熙门", "category": "地铁站", "district": "朝阳区", "osmId": "node/12435251104"}}, {"type": "Feature", "geometry": {"type": "Point", "coordinates": [116.4250584, 39.9997494]}, "properties": {"name": "关庄", "category": "地铁站", "district": "朝阳区", "osmId": "node/3379245685"}}, {"type": "Feature", "geometry": {"type": "Point", "coordinates": [116.4975172, 39.8840067]}, "properties": {"name": "化工", "category": "地铁站", "district": "朝阳区", "osmId": "node/3369459831"}}, {"type": "Feature", "geometry": {"type": "Point", "coordinates": [116.3879263, 39.9763987]}, "properties": {"name": "北土城", "category": "地铁站", "district": "朝阳区", "osmId": "node/5305505997"}}, {"type": "Feature", "geometry": {"type": "Point", "coordinates": [116.4713573, 39.8736424]}, "properties": {"name": "北工大西门", "category": "地铁站", "district": "朝阳区", "osmId": "node/3369001433"}}, {"type": "Feature", "geometry": {"type": "Point", "coordinates": [116.4119016, 40.0290192]}, "properties": {"name": "北苑路北", "category": "地铁站", "district": "朝阳区", "osmId": "node/340262247"}}, {"type": "Feature", "geometry": {"type": "Point", "coordinates": [116.4898314, 39.8430584]}, "properties": {"name": "十八里店", "category": "地铁站", "district": "朝阳区", "osmId": "node/9380291879"}}, {"type": "Feature", "geometry": {"type": "Point", "coordinates": [116.4969516, 39.9214779]}, "properties": {"name": "十里堡", "category": "地铁站", "district": "朝阳区", "osmId": "node/14124020370"}}, {"type": "Feature", "geometry": {"type": "Point", "coordinates": [116.4961468, 39.9216386]}, "properties": {"name": "十里堡", "category": "地铁站", "district": "朝阳区", "osmId": "node/14142473063"}}, {"type": "Feature", "geometry": {"type": "Point", "coordinates": [116.4525595, 39.8647129]}, "properties": {"name": "十里河", "category": "地铁站", "district": "朝阳区", "osmId": "node/3367977137"}}, {"type": "Feature", "geometry": {"type": "Point", "coordinates": [116.4544834, 39.8635284]}, "properties": {"name": "十里河", "category": "地铁站", "district": "朝阳区", "osmId": "node/9147328748"}}, {"type": "Feature", "geometry": {"type": "Point", "coordinates": [116.4954124, 39.8733935]}, "properties": {"name": "南楼梓庄", "category": "地铁站", "district": "朝阳区", "osmId": "node/3369459832"}}, {"type": "Feature", "geometry": {"type": "Point", "coordinates": [116.4552314, 39.8920933]}, "properties": {"name": "双井", "category": "地铁站", "district": "朝阳区", "osmId": "node/3369459833"}}, {"type": "Feature", "geometry": {"type": "Point", "coordinates": [116.5223453, 39.8581385]}, "properties": {"name": "双合", "category": "地铁站", "district": "朝阳区", "osmId": "node/3369459834"}}, {"type": "Feature", "geometry": {"type": "Point", "coordinates": [116.4706068, 39.855252]}, "properties": {"name": "周家庄", "category": "地铁站", "district": "朝阳区", "osmId": "node/9384986215"}}, {"type": "Feature", "geometry": {"type": "Point", "coordinates": [116.4117932, 39.9672289]}, "properties": {"name": "和平西桥", "category": "地铁站", "district": "朝阳区", "osmId": "node/5305505986"}}, {"type": "Feature", "geometry": {"type": "Point", "coordinates": [116.4118056, 39.9677829]}, "properties": {"name": "和平西桥", "category": "地铁站", "district": "朝阳区", "osmId": "node/12435251103"}}, {"type": "Feature", "geometry": {"type": "Point", "coordinates": [116.5057156, 39.859574]}, "properties": {"name": "垡头", "category": "地铁站", "district": "朝阳区", "osmId": "node/3369459835"}}, {"type": "Feature", "geometry": {"type": "Point", "coordinates": [116.4712272, 39.9069399]}, "properties": {"name": "大望路", "category": "地铁站", "district": "朝阳区", "osmId": "node/3369001431"}}, {"type": "Feature", "geometry": {"type": "Point", "coordinates": [116.4813499, 39.8921857]}, "properties": {"name": "大郊亭", "category": "地铁站", "district": "朝阳区", "osmId": "node/3369459836"}}, {"type": "Feature", "geometry": {"type": "Point", "coordinates": [116.4411862, 39.9712918]}, "properties": {"name": "太阳宫", "category": "地铁站", "district": "朝阳区", "osmId": "node/11496710264"}}, {"type": "Feature", "geometry": {"type": "Point", "coordinates": [116.387583, 39.9841327]}, "properties": {"name": "奥体中心", "category": "地铁站", "district": "朝阳区", "osmId": "node/8073325264"}}, {"type": "Feature", "geometry": {"type": "Point", "coordinates": [116.3867559, 40.0003857]}, "properties": {"name": "奥林匹克公园", "category": "地铁站", "district": "朝阳区", "osmId": "node/3379245688"}}, {"type": "Feature", "geometry": {"type": "Point", "coordinates": [116.3853355, 40.0008946]}, "properties": {"name": "奥林匹克公园", "category": "地铁站", "district": "朝阳区", "osmId": "node/5402695989"}}, {"type": "Feature", "geometry": {"type": "Point", "coordinates": [116.4016216, 40.0011779]}, "properties": {"name": "安立路", "category": "地铁站", "district": "朝阳区", "osmId": "node/3379245689"}}, {"type": "Feature", "geometry": {"type": "Point", "coordinates": [116.4840447, 39.9694941]}, "properties": {"name": "将台", "category": "地铁站", "district": "朝阳区", "osmId": "node/3369356930"}}, {"type": "Feature", "geometry": {"type": "Point", "coordinates": [116.4867537, 40.0205632]}, "properties": {"name": "崔各庄", "category": "地铁站", "district": "朝阳区", "osmId": "node/8073325256"}}, {"type": "Feature", "geometry": {"type": "Point", "coordinates": [116.4713411, 39.8838514]}, "properties": {"name": "平乐园", "category": "地铁站", "district": "朝阳区", "osmId": "node/3369001432"}}, {"type": "Feature", "geometry": {"type": "Point", "coordinates": [116.4109068, 39.9861781]}, "properties": {"name": "惠新西街北口", "category": "地铁站", "district": "朝阳区", "osmId": "node/5305505984"}}, {"type": "Feature", "geometry": {"type": "Point", "coordinates": [116.4113554, 39.9759588]}, "properties": {"name": "惠新西街南口", "category": "地铁站", "district": "朝阳区", "osmId": "node/5305505985"}}, {"type": "Feature", "geometry": {"type": "Point", "coordinates": [116.4624279, 39.9965663]}, "properties": {"name": "望京", "category": "地铁站", "district": "朝阳区", "osmId": "node/3369356931"}}, {"type": "Feature", "geometry": {"type": "Point", "coordinates": [116.4725284, 39.9323096]}, "properties": {"name": "朝阳公园", "category": "地铁站", "district": "朝阳区", "osmId": "node/3363577821"}}, {"type": "Feature", "geometry": {"type": "Point", "coordinates": [116.4607871, 40.0191988]}, "properties": {"name": "来广营", "category": "地铁站", "district": "朝阳区", "osmId": "node/3369356933"}}, {"type": "Feature", "geometry": {"type": "Point", "coordinates": [116.3667905, 40.0206001]}, "properties": {"name": "林萃桥", "category": "地铁站", "district": "朝阳区", "osmId": "node/5305506002"}}, {"type": "Feature", "geometry": {"type": "Point", "coordinates": [116.4690136, 39.942932]}, "properties": {"name": "枣营", "category": "地铁站", "district": "朝阳区", "osmId": "node/3363538820"}}, {"type": "Feature", "geometry": {"type": "Point", "coordinates": [116.3864002, 40.009195]}, "properties": {"name": "森林公园南门", "category": "地铁站", "district": "朝阳区", "osmId": "node/5305505998"}}, {"type": "Feature", "geometry": {"type": "Point", "coordinates": [116.4930838, 39.8656674]}, "properties": {"name": "欢乐谷景区", "category": "地铁站", "district": "朝阳区", "osmId": "node/3369459841"}}, {"type": "Feature", "geometry": {"type": "Point", "coordinates": [116.44415, 39.9070982]}, "properties": {"name": "永安里", "category": "地铁站", "district": "朝阳区", "osmId": "node/5442185238"}}, {"type": "Feature", "geometry": {"type": "Point", "coordinates": [116.444194, 39.9083452]}, "properties": {"name": "永安里", "category": "地铁站", "district": "朝阳区", "osmId": "node/13417518490"}}, {"type": "Feature", "geometry": {"type": "Point", "coordinates": [116.4360139, 40.0496531]}, "properties": {"name": "清河营", "category": "地铁站", "district": "朝阳区", "osmId": "node/11478723285"}}, {"type": "Feature", "geometry": {"type": "Point", "coordinates": [116.4549705, 39.8748619]}, "properties": {"name": "潘家园", "category": "地铁站", "district": "朝阳区", "osmId": "node/5372350032"}}, {"type": "Feature", "geometry": {"type": "Point", "coordinates": [116.531614, 39.8542896]}, "properties": {"name": "焦化厂", "category": "地铁站", "district": "朝阳区", "osmId": "node/3369459843"}}, {"type": "Feature", "geometry": {"type": "Point", "coordinates": [116.4902447, 39.8913756]}, "properties": {"name": "百子湾", "category": "地铁站", "district": "朝阳区", "osmId": "node/3369459845"}}, {"type": "Feature", "geometry": {"type": "Point", "coordinates": [116.4355362, 40.0330877]}, "properties": {"name": "红军营", "category": "地铁站", "district": "朝阳区", "osmId": "node/11478723290"}}, {"type": "Feature", "geometry": {"type": "Point", "coordinates": [116.4427211, 39.8328015]}, "properties": {"name": "肖村", "category": "地铁站", "district": "朝阳区", "osmId": "node/7278207455"}}, {"type": "Feature", "geometry": {"type": "Point", "coordinates": [116.4297381, 39.9759527]}, "properties": {"name": "芍药居", "category": "地铁站", "district": "朝阳区", "osmId": "node/5430392913"}}, {"type": "Feature", "geometry": {"type": "Point", "coordinates": [116.6103044, 39.9235091]}, "properties": {"name": "草房", "category": "地铁站", "district": "朝阳区", "osmId": "node/8073325259"}}, {"type": "Feature", "geometry": {"type": "Point", "coordinates": [116.4555255, 39.9159595]}, "properties": {"name": "金台夕照", "category": "地铁站", "district": "朝阳区", "osmId": "node/5687481931"}}, {"type": "Feature", "geometry": {"type": "Point", "coordinates": [116.4650632, 39.9906798]}, "properties": {"name": "阜通", "category": "地铁站", "district": "朝阳区", "osmId": "node/3369356934"}}, {"type": "Feature", "geometry": {"type": "Point", "coordinates": [116.5255476, 39.9082528]}, "properties": {"name": "高碑店", "category": "地铁站", "district": "朝阳区", "osmId": "node/8978629464"}}, {"type": "Feature", "geometry": {"type": "Point", "coordinates": [116.5730712, 39.9228365]}, "properties": {"name": "黄渠", "category": "地铁站", "district": "朝阳区", "osmId": "node/7896877677"}}, {"type": "Feature", "geometry": {"type": "Point", "coordinates": [116.2887714, 39.9062159]}, "properties": {"name": "万寿路", "category": "地铁站", "district": "海淀区", "osmId": "node/6617849504"}}, {"type": "Feature", "geometry": {"type": "Point", "coordinates": [116.3140843, 40.0317646]}, "properties": {"name": "上地", "category": "地铁站", "district": "海淀区", "osmId": "node/6617852359"}}, {"type": "Feature", "geometry": {"type": "Point", "coordinates": [116.2805664, 40.043537]}, "properties": {"name": "上地软件园", "category": "地铁站", "district": "海淀区", "osmId": "node/13410014896"}}, {"type": "Feature", "geometry": {"type": "Point", "coordinates": [116.2887219, 40.051835]}, "properties": {"name": "东北旺", "category": "地铁站", "district": "海淀区", "osmId": "node/13410014897"}}, {"type": "Feature", "geometry": {"type": "Point", "coordinates": [116.3103787, 39.9826574]}, "properties": {"name": "中关村", "category": "地铁站", "district": "海淀区", "osmId": "node/7861046851"}}, {"type": "Feature", "geometry": {"type": "Point", "coordinates": [116.2680336, 39.9062214]}, "properties": {"name": "五棵松", "category": "地铁站", "district": "海淀区", "osmId": "node/6617849505"}}, {"type": "Feature", "geometry": {"type": "Point", "coordinates": [116.3317017, 39.9914779]}, "properties": {"name": "五道口", "category": "地铁站", "district": "海淀区", "osmId": "node/5442237543"}}, {"type": "Feature", "geometry": {"type": "Point", "coordinates": [116.3157286, 39.965744]}, "properties": {"name": "人民大学", "category": "地铁站", "district": "海淀区", "osmId": "node/7861046852"}}, {"type": "Feature", "geometry": {"type": "Point", "coordinates": [116.3747659, 39.9750859]}, "properties": {"name": "健德门", "category": "地铁站", "district": "海淀区", "osmId": "node/5447625351"}}, {"type": "Feature", "geometry": {"type": "Point", "coordinates": [116.3466428, 39.9996659]}, "properties": {"name": "六道口", "category": "地铁站", "district": "海淀区", "osmId": "node/5687426566"}}, {"type": "Feature", "geometry": {"type": "Point", "coordinates": [116.2770283, 40.0184431]}, "properties": {"name": "农大南路", "category": "地铁站", "district": "海淀区", "osmId": "node/4564112873"}}, {"type": "Feature", "geometry": {"type": "Point", "coordinates": [116.3097264, 39.9907813]}, "properties": {"name": "北京大学东门", "category": "地铁站", "district": "海淀区", "osmId": "node/7861046850"}}, {"type": "Feature", "geometry": {"type": "Point", "coordinates": [116.364124, 39.9667708]}, "properties": {"name": "北太平庄", "category": "地铁站", "district": "海淀区", "osmId": "node/9385085646"}}, {"type": "Feature", "geometry": {"type": "Point", "coordinates": [116.1243785, 40.0668592]}, "properties": {"name": "北安河", "category": "地铁站", "district": "海淀区", "osmId": "node/4564113110"}}, {"type": "Feature", "geometry": {"type": "Point", "coordinates": [116.2713671, 40.0011928]}, "properties": {"name": "北宫门", "category": "地铁站", "district": "海淀区", "osmId": "node/6497814374"}}, {"type": "Feature", "geometry": {"type": "Point", "coordinates": [116.3620432, 40.0001238]}, "properties": {"name": "北沙滩", "category": "地铁站", "district": "海淀区", "osmId": "node/3379245686"}}, {"type": "Feature", "geometry": {"type": "Point", "coordinates": [116.3036739, 39.9982949]}, "properties": {"name": "圆明园", "category": "地铁站", "district": "海淀区", "osmId": "node/7861046849"}}, {"type": "Feature", "geometry": {"type": "Point", "coordinates": [116.3390137, 39.9652731]}, "properties": {"name": "大钟寺", "category": "地铁站", "district": "海淀区", "osmId": "node/6617852356"}}, {"type": "Feature", "geometry": {"type": "Point", "coordinates": [116.3378309, 39.9661057]}, "properties": {"name": "大钟寺", "category": "地铁站", "district": "海淀区", "osmId": "node/12435287603"}}, {"type": "Feature", "geometry": {"type": "Point", "coordinates": [116.2093337, 40.0673089]}, "properties": {"name": "屯佃", "category": "地铁站", "district": "海淀区", "osmId": "node/4564113101"}}, {"type": "Feature", "geometry": {"type": "Point", "coordinates": [116.3315051, 39.9061161]}, "properties": {"name": "木樨地", "category": "地铁站", "district": "海淀区", "osmId": "node/6617849501"}}, {"type": "Feature", "geometry": {"type": "Point", "coordinates": [116.2435428, 40.0630145]}, "properties": {"name": "永丰南", "category": "地铁站", "district": "海淀区", "osmId": "node/4564112888"}}, {"type": "Feature", "geometry": {"type": "Point", "coordinates": [116.3483302, 40.0366785]}, "properties": {"name": "永泰庄", "category": "地铁站", "district": "海淀区", "osmId": "node/5305506003"}}, {"type": "Feature", "geometry": {"type": "Point", "coordinates": [116.3115201, 39.9747132]}, "properties": {"name": "海淀黄庄", "category": "地铁站", "district": "海淀区", "osmId": "node/6606270273"}}, {"type": "Feature", "geometry": {"type": "Point", "coordinates": [116.3336262, 39.9993038]}, "properties": {"name": "清华东路西口", "category": "地铁站", "district": "海淀区", "osmId": "node/3379245690"}}, {"type": "Feature", "geometry": {"type": "Point", "coordinates": [116.3086826, 40.0397784]}, "properties": {"name": "清河站", "category": "地铁站", "district": "海淀区", "osmId": "node/7116372189"}}, {"type": "Feature", "geometry": {"type": "Point", "coordinates": [116.1555687, 40.0675113]}, "properties": {"name": "温阳路", "category": "地铁站", "district": "海淀区", "osmId": "node/4564113107"}}, {"type": "Feature", "geometry": {"type": "Point", "coordinates": [116.3630635, 39.9749126]}, "properties": {"name": "牡丹园", "category": "地铁站", "district": "海淀区", "osmId": "node/5448581898"}}, {"type": "Feature", "geometry": {"type": "Point", "coordinates": [116.3636148, 39.9750791]}, "properties": {"name": "牡丹园", "category": "地铁站", "district": "海淀区", "osmId": "node/9385101461"}}, {"type": "Feature", "geometry": {"type": "Point", "coordinates": [116.3229284, 39.9749496]}, "properties": {"name": "知春里", "category": "地铁站", "district": "海淀区", "osmId": "node/7896877681"}}, {"type": "Feature", "geometry": {"type": "Point", "coordinates": [116.3670609, 39.947325]}, "properties": {"name": "积水潭", "category": "地铁站", "district": "海淀区", "osmId": "node/6724002358"}}, {"type": "Feature", "geometry": {"type": "Point", "coordinates": [116.3001813, 40.0517165]}, "properties": {"name": "西二旗", "category": "地铁站", "district": "海淀区", "osmId": "node/5430533767"}}, {"type": "Feature", "geometry": {"type": "Point", "coordinates": [116.2520781, 40.0478932]}, "properties": {"name": "西北旺", "category": "地铁站", "district": "海淀区", "osmId": "node/4564112882"}}, {"type": "Feature", "geometry": {"type": "Point", "coordinates": [116.3451639, 40.0460679]}, "properties": {"name": "西小口", "category": "地铁站", "district": "海淀区", "osmId": "node/5305506004"}}, {"type": "Feature", "geometry": {"type": "Point", "coordinates": [116.2855319, 39.9966984]}, "properties": {"name": "西苑", "category": "地铁站", "district": "海淀区", "osmId": "node/6580603898"}}, {"type": "Feature", "geometry": {"type": "Point", "coordinates": [116.265829, 40.031445]}, "properties": {"name": "马连洼", "category": "地铁站", "district": "海淀区", "osmId": "node/4564112875"}}, {"type": "Feature", "geometry": {"type": "Point", "coordinates": [116.2684248, 40.0313885]}, "properties": {"name": "马连洼", "category": "地铁站", "district": "海淀区", "osmId": "node/9669538693"}}, {"type": "Feature", "geometry": {"type": "Point", "coordinates": [116.3171815, 39.9563044]}, "properties": {"name": "魏公村", "category": "地铁站", "district": "海淀区", "osmId": "node/7861046853"}}, {"type": "Feature", "geometry": {"type": "Point", "coordinates": [116.2296796, 39.9061888]}, "properties": {"name": "八宝山", "category": "地铁站", "district": "石景山区", "osmId": "node/6617849507"}}, {"type": "Feature", "geometry": {"type": "Point", "coordinates": [116.1585873, 39.9138827]}, "properties": {"name": "北辛安", "category": "地铁站", "district": "石景山区", "osmId": "node/9379477289"}}, {"type": "Feature", "geometry": {"type": "Point", "coordinates": [116.1586061, 39.9076653]}, "properties": {"name": "新首钢", "category": "地铁站", "district": "石景山区", "osmId": "node/9379477290"}}, {"type": "Feature", "geometry": {"type": "Point", "coordinates": [116.1498174, 39.9323418]}, "properties": {"name": "模式口", "category": "地铁站", "district": "石景山区", "osmId": "node/9383939775"}}, {"type": "Feature", "geometry": {"type": "Point", "coordinates": [116.2468996, 39.9061931]}, "properties": {"name": "玉泉路", "category": "地铁站", "district": "石景山区", "osmId": "node/6617849508"}}, {"type": "Feature", "geometry": {"type": "Point", "coordinates": [116.156827, 39.9219237]}, "properties": {"name": "金安桥", "category": "地铁站", "district": "石景山区", "osmId": "node/6172173583"}}, {"type": "Feature", "geometry": {"type": "Point", "coordinates": [116.1552373, 39.9209099]}, "properties": {"name": "金安桥", "category": "地铁站", "district": "石景山区", "osmId": "node/9379477292"}}, {"type": "Feature", "geometry": {"type": "Point", "coordinates": [116.3900647, 39.9359528]}, "properties": {"name": "什刹海", "category": "地铁站", "district": "西城区", "osmId": "node/5305505993"}}, {"type": "Feature", "geometry": {"type": "Point", "coordinates": [116.3929416, 39.8982814]}, "properties": {"name": "前门", "category": "地铁站", "district": "西城区", "osmId": "node/6724644886"}}, {"type": "Feature", "geometry": {"type": "Point", "coordinates": [116.3465697, 39.9058662]}, "properties": {"name": "南礼士路", "category": "地铁站", "district": "西城区", "osmId": "node/6617849502"}}, {"type": "Feature", "geometry": {"type": "Point", "coordinates": [116.3949169, 39.9063337]}, "properties": {"name": "天安门东", "category": "地铁站", "district": "西城区", "osmId": "node/5441520625"}}, {"type": "Feature", "geometry": {"type": "Point", "coordinates": [116.3851622, 39.9059702]}, "properties": {"name": "天安门西", "category": "地铁站", "district": "西城区", "osmId": "node/6447754030"}}, {"type": "Feature", "geometry": {"type": "Point", "coordinates": [116.3883984, 39.9671117]}, "properties": {"name": "安华桥", "category": "地铁站", "district": "西城区", "osmId": "node/5305505996"}}, {"type": "Feature", "geometry": {"type": "Point", "coordinates": [116.3664868, 39.9323165]}, "properties": {"name": "平安里", "category": "地铁站", "district": "西城区", "osmId": "node/5430502371"}}, {"type": "Feature", "geometry": {"type": "Point", "coordinates": [116.3617483, 39.9320831]}, "properties": {"name": "平安里", "category": "地铁站", "district": "西城区", "osmId": "node/9385088768"}}, {"type": "Feature", "geometry": {"type": "Point", "coordinates": [116.3651624, 39.9313232]}, "properties": {"name": "平安里", "category": "地铁站", "district": "西城区", "osmId": "node/9385088769"}}, {"type": "Feature", "geometry": {"type": "Point", "coordinates": [116.351727, 39.8885681]}, "properties": {"name": "广安门内", "category": "地铁站", "district": "西城区", "osmId": "node/3369459837"}}, {"type": "Feature", "geometry": {"type": "Point", "coordinates": [116.3658244, 39.9462372]}, "properties": {"name": "积水潭", "category": "地铁站", "district": "西城区", "osmId": "node/9385085643"}}, {"type": "Feature", "geometry": {"type": "Point", "coordinates": [116.3682164, 39.887991]}, "properties": {"name": "菜市口", "category": "地铁站", "district": "西城区", "osmId": "node/3369459847"}}, {"type": "Feature", "geometry": {"type": "Point", "coordinates": [116.3774806, 39.8883975]}, "properties": {"name": "虎坊桥", "category": "地铁站", "district": "西城区", "osmId": "node/3369459848"}}, {"type": "Feature", "geometry": {"type": "Point", "coordinates": [116.3668145, 39.9225455]}, "properties": {"name": "西四", "category": "地铁站", "district": "西城区", "osmId": "node/7861046854"}}, {"type": "Feature", "geometry": {"type": "Point", "coordinates": [116.3379903, 39.931061]}, "properties": {"name": "车公庄西", "category": "地铁站", "district": "西城区", "osmId": "node/7896877678"}}, {"type": "Feature", "geometry": {"type": "Point", "coordinates": [116.3293717, 39.888892]}, "properties": {"name": "达官营", "category": "地铁站", "district": "西城区", "osmId": "node/3369459849"}}, {"type": "Feature", "geometry": {"type": "Point", "coordinates": [116.3572147, 39.8980394]}, "properties": {"name": "长椿街", "category": "地铁站", "district": "西城区", "osmId": "node/6724644888"}}, {"type": "Feature", "geometry": {"type": "Point", "coordinates": [116.3500666, 39.922313]}, "properties": {"name": "阜成门", "category": "地铁站", "district": "西城区", "osmId": "node/6724644887"}}, {"type": "Feature", "geometry": {"type": "Point", "coordinates": [116.3682029, 39.8774369]}, "properties": {"name": "陶然亭", "category": "地铁站", "district": "西城区", "osmId": "node/7861046855"}}, {"type": "Feature", "geometry": {"type": "Point", "coordinates": [116.3879183, 39.947544]}, "properties": {"name": "鼓楼大街", "category": "地铁站", "district": "西城区", "osmId": "node/5305505994"}}, {"type": "Feature", "geometry": {"type": "Point", "coordinates": [116.3876367, 39.9467307]}, "properties": {"name": "鼓楼大街", "category": "地铁站", "district": "西城区", "osmId": "node/5305505995"}}, {"type": "Feature", "geometry": {"type": "Point", "coordinates": [116.6728594, 39.8742944]}, "properties": {"name": "临河里", "category": "地铁站", "district": "通州区", "osmId": "node/8073325260"}}, {"type": "Feature", "geometry": {"type": "Point", "coordinates": [116.651623, 39.889165]}, "properties": {"name": "九棵树", "category": "地铁站", "district": "通州区", "osmId": "node/8073325261"}}, {"type": "Feature", "geometry": {"type": "Point", "coordinates": [116.5960819, 39.8115669]}, "properties": {"name": "亦庄火车站", "category": "地铁站", "district": "通州区", "osmId": "node/8073260829"}}, {"type": "Feature", "geometry": {"type": "Point", "coordinates": [116.547173, 39.8175347]}, "properties": {"name": "北神树", "category": "地铁站", "district": "通州区", "osmId": "node/9380291880"}}, {"type": "Feature", "geometry": {"type": "Point", "coordinates": [116.6052556, 39.7918725]}, "properties": {"name": "嘉会湖", "category": "地铁站", "district": "通州区", "osmId": "node/9380291881"}}, {"type": "Feature", "geometry": {"type": "Point", "coordinates": [116.6802742, 39.8707455]}, "properties": {"name": "土桥", "category": "地铁站", "district": "通州区", "osmId": "node/6716238810"}}, {"type": "Feature", "geometry": {"type": "Point", "coordinates": [116.6407547, 39.8922857]}, "properties": {"name": "果园", "category": "地铁站", "district": "通州区", "osmId": "node/8073325262"}}, {"type": "Feature", "geometry": {"type": "Point", "coordinates": [116.5856212, 39.8025523]}, "properties": {"name": "次渠", "category": "地铁站", "district": "通州区", "osmId": "node/8073260830"}}, {"type": "Feature", "geometry": {"type": "Point", "coordinates": [116.5859058, 39.8025261]}, "properties": {"name": "次渠", "category": "地铁站", "district": "通州区", "osmId": "node/9385028990"}}, {"type": "Feature", "geometry": {"type": "Point", "coordinates": [116.5706243, 39.8085973]}, "properties": {"name": "次渠北", "category": "地铁站", "district": "通州区", "osmId": "node/9385028991"}}, {"type": "Feature", "geometry": {"type": "Point", "coordinates": [116.7416309, 39.9016234]}, "properties": {"name": "潞城", "category": "地铁站", "district": "通州区", "osmId": "node/5441513452"}}, {"type": "Feature", "geometry": {"type": "Point", "coordinates": [116.7510869, 39.8888289]}, "properties": {"name": "潞阳", "category": "地铁站", "district": "通州区", "osmId": "node/13367702388"}}, {"type": "Feature", "geometry": {"type": "Point", "coordinates": [116.6334973, 39.9259297]}, "properties": {"name": "物资学院路", "category": "地铁站", "district": "通州区", "osmId": "node/8073325258"}}, {"type": "Feature", "geometry": {"type": "Point", "coordinates": [116.5564358, 39.7825504]}, "properties": {"name": "经海路", "category": "地铁站", "district": "通州区", "osmId": "node/5444695596"}}, {"type": "Feature", "geometry": {"type": "Point", "coordinates": [116.6555297, 39.9174644]}, "properties": {"name": "通州北关", "category": "地铁站", "district": "通州区", "osmId": "node/8073325257"}}, {"type": "Feature", "geometry": {"type": "Point", "coordinates": [116.6669531, 39.9099934]}, "properties": {"name": "通运门", "category": "地铁站", "district": "通州区", "osmId": "node/13974628840"}}, {"type": "Feature", "geometry": {"type": "Point", "coordinates": [116.6035713, 40.1274067]}, "properties": {"name": "南法信", "category": "地铁站", "district": "顺义区", "osmId": "node/8073325255"}}, {"type": "Feature", "geometry": {"type": "Point", "coordinates": [116.5584491, 40.1130148]}, "properties": {"name": "后沙峪", "category": "地铁站", "district": "顺义区", "osmId": "node/8073325254"}}, {"type": "Feature", "geometry": {"type": "Point", "coordinates": [116.5493705, 40.068903]}, "properties": {"name": "国展", "category": "地铁站", "district": "顺义区", "osmId": "node/8073325252"}}, {"type": "Feature", "geometry": {"type": "Point", "coordinates": [116.635218, 40.1286418]}, "properties": {"name": "石门", "category": "地铁站", "district": "顺义区", "osmId": "node/13299172063"}}, {"type": "Feature", "geometry": {"type": "Point", "coordinates": [116.5518402, 40.0833437]}, "properties": {"name": "花梨坎", "category": "地铁站", "district": "顺义区", "osmId": "node/8073325253"}}, {"type": "Feature", "geometry": {"type": "Point", "coordinates": [116.6097731, 40.0515344]}, "properties": {"name": "首都机场3号航站楼", "category": "地铁站", "district": "顺义区", "osmId": "node/9380267870"}}]}