{"type": "FeatureCollection", "features": [{"type": "Feature", "geometry": {"type": "Point", "coordinates": [116.4352479, 39.9158439]}, "properties": {"name": "马骏烈士墓", "category": "红色教育基地", "district": "朝阳区", "osmId": "node/13919125987"}}, {"type": "Feature", "geometry": {"type": "Point", "coordinates": [116.3252385, 40.0021357]}, "properties": {"name": "五四广场", "category": "红色教育基地", "district": "海淀区", "osmId": "node/7072425652"}}, {"type": "Feature", "geometry": {"type": "Point", "coordinates": [116.3020809, 39.9909158]}, "properties": {"name": "北京大学烈士纪念碑", "category": "红色教育基地", "district": "海淀区", "osmId": "node/9137846355"}}, {"type": "Feature", "geometry": {"type": "Point", "coordinates": [116.3195956, 40.0041385]}, "properties": {"name": "北院旧址", "category": "红色教育基地", "district": "海淀区", "osmId": "node/7988927195"}}, {"type": "Feature", "geometry": {"type": "Point", "coordinates": [116.1880286, 39.9852448]}, "properties": {"name": "双清别墅", "category": "红色教育基地", "district": "海淀区", "osmId": "way/605472716"}}, {"type": "Feature", "geometry": {"type": "Point", "coordinates": [116.3163413, 40.0024252]}, "properties": {"name": "纪毓秀烈士骨灰存放处", "category": "红色教育基地", "district": "海淀区", "osmId": "node/7988927185"}}, {"type": "Feature", "geometry": {"type": "Point", "coordinates": [116.3865143, 39.9688362]}, "properties": {"name": "中国科学技术馆旧址", "category": "红色教育基地", "district": "西城区", "osmId": "way/55883845"}}, {"type": "Feature", "geometry": {"type": "Point", "coordinates": [116.3667691, 39.917861]}, "properties": {"name": "北平图书馆旧址", "category": "红色教育基地", "district": "西城区", "osmId": "way/891420295"}}, {"type": "Feature", "geometry": {"type": "Point", "coordinates": [116.359877, 39.903341]}, "properties": {"name": "李大钊故居", "category": "红色教育基地", "district": "西城区", "osmId": "node/342799184"}}]}